{
  "metadata": {
    "total_temples": 578,
    "income_category": "46_iii",
    "description": "Temples with annual income of Rs. 10 lakhs and above"
  },
  "temples": [
    {
      "temple_id": "TM018025",
      "temple_name": "Arulmigu Arunajadeswara Swamy Temple",
      "district": "Thanjavur District",
      "address": "Arulmigu Arunajadeswara Swamy Temple, Thirupanandal",
      "pincode": "612504",
      "income_category": "46_iii"
    },
    {
      "temple_id": "TM018029",
      "temple_name": "Arulmigu Amirthakadeswaraswamy Temple",
      "district": "Mayiladuthurai District",
      "address": "Arulmigu Amirthakadeswaraswamy Temple, Thirukadaiyur",
      "pincode": "609311",
      "income_category": "46_iii"
    },
    {
      "temple_id": "TM018030",
      "temple_name": "Arulmigu Vaithiyanathaswamy Temple",
      "district": "Mayiladuthurai District",
      "address": "Arulmigu Vaithiyanathaswamy Temple, Vaitheeswarankoil",
      "pincode": "609117",
      "income_category": "46_iii"
    },
    {
      "temple_id": "TM018031",
      "temple_name": "Arulmigu Sattanathaswamy Temple",
      "district": "Mayiladuthurai District",
      "address": "Arulmigu Sattanathaswamy Temple, Sirkazhi",
      "pincode": "609110",
      "income_category": "46_iii"
    },
    {
      "temple_id": "TM018060",
      "temple_name": "Arulmigu Komuktheeswara Swamy Temple",
      "district": "Mayiladuthurai District",
      "address": "Arulmigu Komuktheeswara Swamy Temple, Thiruvavaduthurai",
      "pincode": "609803",
      "income_category": "46_iii"
    },
    {
      "temple_id": "TM018259",
      "temple_name": "Arulmigu Vadhaneswara Swmay Temple",
      "district": "Mayiladuthurai District",
      "address": "Arulmigu Vadhaneswara Swmay Temple, Vallarkoil",
      "pincode": "609001",
      "income_category": "46_iii"
    },
    {
      "temple_id": "TM020385",
      "temple_name": "Arulmigu Thiruvikkaraswamy Temple",
      "district": "Kallakurichi District",
      "address": "Arulmigu Thiruvikkaraswamy Temple, Thirukoilur",
      "pincode": "605757",
      "income_category": "46_iii"
    },
    {
      "temple_id": "TM025457",
      "temple_name": "Arulmigu Aathmanaathaswamy Temple",
      "district": "Pudukkottai District",
      "address": "Arulmigu Aathmanaathaswamy Temple, Avudaiyarkovil",
      "pincode": "614618",
      "income_category": "46_iii"
    },
    {
      "temple_id": "TM038106",
      "temple_name": "Arulmigu Alagiya Nambirayar Temple",
      "district": "Tirunelveli District",
      "address": "Arulmigu Alagiya Nambirayar Temple, Thirukurungudi",
      "pincode": "627115",
      "income_category": "46_iii"
    },
    {
      "temple_id": "TM000369",
      "temple_name": "Arulmigu Manali Lakshmana Mudaliyar Specific Trust",
      "district": "Chennai District",
      "address": "Arulmigu Manali Lakshmana Mudaliyar Specific Trust, Chennai",
      "pincode": "600001",
      "income_category": "46_iii"
    },
    {
      "temple_id": "TM009812",
      "temple_name": "Thiru Ranojirao Endowment",
      "district": "Coimbatore District",
      "address": "Thiru Ranojirao Endowment, Town Hall, Coimbatore",
      "pincode": "641001",
      "income_category": "46_iii"
    },
    {
      "temple_id": "TM032012",
      "temple_name": "Arulmigu Puttu Chokkanathar Temple",
      "district": "Madurai District",
      "address": "Arulmigu Puttu Chokkanathar Temple, Arapalayam, Madurai",
      "pincode": "625016",
      "income_category": "46_iii"
    },
    {
      "temple_id": "TM032250",
      "temple_name": "Santhakula Sowmiyanarayanan Kattalai",
      "district": "Dindigul District",
      "address": "Santhakula Sowmiyanarayanan Kattalai, Palani",
      "pincode": "624601",
      "income_category": "46_iii"
    },
    {
      "temple_id": "TM035780",
      "temple_name": "Ala Aru Kattalai",
      "district": "Sivagangai District",
      "address": "Ala Aru Kattalai, Kalayarkoil",
      "pincode": "630551",
      "income_category": "46_iii"
    },
    {
      "temple_id": "TM037941",
      "temple_name": "Arulmigu Medai Dalavai Kattlai",
      "district": "Tirunelveli District",
      "address": "Arulmigu Medai Dalavai Kattlai, Meenakshi Puram",
      "pincode": "627001",
      "income_category": "46_iii"
    },
    {
      "temple_id": "TM038192",
      "temple_name": "Melakopura Thiruppani Kattalai In Arulmigu Subramaniya Swami Temple",
      "district": "Thoothukudi District",
      "address": "Melakopura Thiruppani Kattalai In Arulmigu Subramaniya Swami Temple, Tiruchendur",
      "pincode": "628151",
      "income_category": "46_iii"
    },
    {
      "temple_id": "TM038249",
      "temple_name": "Arulmigu Subramaniya Swamy Magamai Kattalai",
      "district": "Thoothukudi District",
      "address": "Arulmigu Subramaniya Swamy Magamai Kattalai, Thoothukudi",
      "pincode": "628002",
      "income_category": "46_iii"
    },
    {
      "temple_id": "TM000001",
      "temple_name": "Arulmigu Kapaleeswarar Temple",
      "district": "Chennai District",
      "address": "Arulmigu Kapaleeswarar Temple, Mylapore, Chennai",
      "pincode": "600004",
      "income_category": "46_iii"
    },
    {
      "temple_id": "TM000005",
      "temple_name": "Arulmigu Parthasarathy Swamy Temple",
      "district": "Chennai District",
      "address": "Arulmigu Parthasarathy Swamy Temple, Triplicane, Chennai",
      "pincode": "600005",
      "income_category": "46_iii"
    },
    {
      "temple_id": "TM000006",
      "temple_name": "Arulmigu Vadapalani Andavar Temple",
      "district": "Chennai District",
      "address": "Arulmigu Vadapalani Andavar Temple, Vadapalani, Chennai",
      "pincode": "600026",
      "income_category": "46_iii"
    },
    {
      "temple_id": "TM000009",
      "temple_name": "Arulmigu Bharathwajeswar Temple",
      "district": "Chennai District",
      "address": "Arulmigu Bharathwajeswar Temple, Puliyur, Chennai",
      "pincode": "600024",
      "income_category": "46_iii"
    },
    {
      "temple_id": "TM000013",
      "temple_name": "Arulmigu Devi Thirumani Amman Temple",
      "district": "Chennai District",
      "address": "Arulmigu Devi Thirumani Amman Temple, Anna Nagar, Chennai",
      "pincode": "600040",
      "income_category": "46_iii"
    },
    {
      "temple_id": "TM000015",
      "temple_name": "Arulmigu Masilmaneeswarar Temple",
      "district": "Chennai District",
      "address": "Arulmigu Masilmaneeswarar Temple, Thirumullaivoyal, Chennai",
      "pincode": "600062",
      "income_category": "46_iii"
    },
    {
      "temple_id": "TM000017",
      "temple_name": "Arulmigu Mundgakanni Amman Temple",
      "district": "Chennai District",
      "address": "Arulmigu Mundgakanni Amman Temple, Mylapore, Chennai",
      "pincode": "600004",
      "income_category": "46_iii"
    },
    {
      "temple_id": "TM000019",
      "temple_name": "Arulmigu Adivyadhihara Bagtha Anjaneyar Temple",
      "district": "Chennai District",
      "address": "Arulmigu Adivyadhihara Bagtha Anjaneyar Temple, Nanganallur, Chennai",
      "pincode": "600061",
      "income_category": "46_iii"
    },
    {
      "temple_id": "TM000030",
      "temple_name": "Arulmigu Madhava Perumal Temple",
      "district": "Chennai District",
      "address": "Arulmigu Madhava Perumal Temple, Mylapore, Chennai",
      "pincode": "600004",
      "income_category": "46_iii"
    },
    {
      "temple_id": "TM000046",
      "temple_name": "Arulmigu Sidhi Budhi Vinayakar& Sunderswarar Temple",
      "district": "Chennai District",
      "address": "Arulmigu Sidhi Budhi Vinayakar& Sunderswarar Temple, Royapetta, Chennai",
      "pincode": "600014",
      "income_category": "46_iii"
    },
    {
      "temple_id": "TM000051",
      "temple_name": "Arulmigu Srinivasa Perumal Temple",
      "district": "Chennai District",
      "address": "Arulmigu Srinivasa Perumal Temple, Egmore, Chennai",
      "pincode": "600008",
      "income_category": "46_iii"
    },
    {
      "temple_id": "TM000052",
      "temple_name": "Arulmigu Selva Vinayagar Temple",
      "district": "Chennai District",
      "address": "Arulmigu Selva Vinayagar Temple, Egmore, Chennai",
      "pincode": "600008",
      "income_category": "46_iii"
    },
    {
      "temple_id": "TM000053",
      "temple_name": "Arulmigu Ponniamman Vagaiyara Temple",
      "district": "Chennai District",
      "address": "Arulmigu Ponniamman Vagaiyara Temple, Egmore, Chennai",
      "pincode": "600008",
      "income_category": "46_iii"
    },
    {
      "temple_id": "TM000058",
      "temple_name": "Arulmigu Ellamman Temple",
      "district": "Chennai District",
      "address": "Arulmigu Ellamman Temple, Periyamet, Chennai",
      "pincode": "600003",
      "income_category": "46_iii"
    },
    {
      "temple_id": "TM000061",
      "temple_name": "Arulmigu Rathina Vinayagar and Durgai Amman Temple",
      "district": "Chennai District",
      "address": "Arulmigu Rathina Vinayagar and Durgai Amman Temple, Rayapettai, Chennai",
      "pincode": "600014",
      "income_category": "46_iii"
    },
    {
      "temple_id": "TM000066",
      "temple_name": "Arulmigu Mahalakshmi Temple",
      "district": "Chennai District",
      "address": "Arulmigu Mahalakshmi Temple, Besant Nagar, Chennai",
      "pincode": "600090",
      "income_category": "46_iii"
    },
    {
      "temple_id": "TM000068",
      "temple_name": "Arulmigu Karaneeswarar Temple",
      "district": "Chennai District",
      "address": "Arulmigu Karaneeswarar Temple, Saidapet, Chennai",
      "pincode": "600015",
      "income_category": "46_iii"
    },
    {
      "temple_id": "TM000071",
      "temple_name": "Arulmigu Agatheeswarar Prasanna Venkatesa Perumal Temple",
      "district": "Chennai District",
      "address": "Arulmigu Agatheeswarar Prasanna Venkatesa Perumal Temple, Nungambakkam, Chennai",
      "pincode": "600034",
      "income_category": "46_iii"
    },
    {
      "temple_id": "TM000081",
      "temple_name": "Arulmigu Thiyagaraja Swamy Temple",
      "district": "Chennai District",
      "address": "Arulmigu Thiyagaraja Swamy Temple, Thiruvottiyur, Chennai",
      "pincode": "600019",
      "income_category": "46_iii"
    },
    {
      "temple_id": "TM000082",
      "temple_name": "Arulmigu Dhakshina Murthy Temple",
      "district": "Chennai District",
      "address": "Arulmigu Dhakshina Murthy Temple, Thiruvottiyur, Chennai",
      "pincode": "600019",
      "income_category": "46_iii"
    },
    {
      "temple_id": "TM000085",
      "temple_name": "Arulmigu Pattinathar Temple",
      "district": "Chennai District",
      "address": "Arulmigu Pattinathar Temple, Thiruvottiyur, Chennai",
      "pincode": "600019",
      "income_category": "46_iii"
    },
    {
      "temple_id": "TM000087",
      "temple_name": "Arulmigu Marundheeswarar Temple",
      "district": "Chennai District",
      "address": "Arulmigu Marundheeswarar Temple, Thiruvanmiyur, Chennai",
      "pincode": "600041",
      "income_category": "46_iii"
    },
    {
      "temple_id": "TM000088",
      "temple_name": "Arulmigu Prasanna Venkatesa Perumal Temple",
      "district": "Chennai District",
      "address": "Arulmigu Prasanna Venkatesa Perumal Temple, Kottur, Chennai",
      "pincode": "600085",
      "income_category": "46_iii"
    },
    {
      "temple_id": "TM000089",
      "temple_name": "Arulmigu Srinivasa Perumal Temple",
      "district": "Chennai District",
      "address": "Arulmigu Srinivasa Perumal Temple, Semmancheri, Chennai",
      "pincode": "600119",
      "income_category": "46_iii"
    },
    {
      "temple_id": "TM000094",
      "temple_name": "Arulmigu Devi Baliamman Temple",
      "district": "Chennai District",
      "address": "Arulmigu Devi Baliamman Temple, Villivakkam, Chennai",
      "pincode": "600049",
      "income_category": "46_iii"
    },
    {
      "temple_id": "TM000095",
      "temple_name": "Arulmigu Somanatha Swamy Temple",
      "district": "Chennai District",
      "address": "Arulmigu Somanatha Swamy Temple, Kolthur, Chennai",
      "pincode": "600099",
      "income_category": "46_iii"
    },
    {
      "temple_id": "TM000096",
      "temple_name": "Arulmigu Sowmya Damodhara Perumal Temple",
      "district": "Chennai District",
      "address": "Arulmigu Sowmya Damodhara Perumal Temple, Villivakkam, Chennai",
      "pincode": "600049",
      "income_category": "46_iii"
    },
    {
      "temple_id": "TM000100",
      "temple_name": "Arulmigu Pidari Malayathamman Temple",
      "district": "Chennai District",
      "address": "Arulmigu Pidari Malayathamman Temple, Mannurpet, Chennai",
      "pincode": "600050",
      "income_category": "46_iii"
    },
    {
      "temple_id": "TM000102",
      "temple_name": "Arulmigu Thiruvallishwarar Temple",
      "district": "Chennai District",
      "address": "Arulmigu Thiruvallishwarar Temple, Padi, Chennai",
      "pincode": "600050",
      "income_category": "46_iii"
    },
    {
      "temple_id": "TM000110",
      "temple_name": "Arulmigu Padavattamman Temple",
      "district": "Chennai District",
      "address": "Arulmigu Padavattamman Temple, Padi, Chennai",
      "pincode": "600050",
      "income_category": "46_iii"
    },
    {
      "temple_id": "TM000115",
      "temple_name": "Arulmigu Sakthi Vinayagar Temple",
      "district": "Chennai District",
      "address": "Arulmigu Sakthi Vinayagar Temple, K.K.Nagar, Chennai",
      "pincode": "600078",
      "income_category": "46_iii"
    },
    {
      "temple_id": "TM000117",
      "temple_name": "Arulmigu Agatheeswarar &Velveeswarar Temple",
      "district": "Chennai District",
      "address": "Arulmigu Agatheeswarar &Velveeswarar Temple, Valasaravakkam, Chennai",
      "pincode": "600087",
      "income_category": "46_iii"
    },
    {
      "temple_id": "TM000123",
      "temple_name": "Arulmigu Varadaraja Manavala Mahamuni Temple",
      "district": "Chennai District",
      "address": "Arulmigu Varadaraja Manavala Mahamuni Temple, Kothaval Bazzar, Chennai",
      "pincode": "600001",
      "income_category": "46_iii"
    },
    {
      "temple_id": "TM000134",
      "temple_name": "Arulmigu Byragimadam Arulmigu Thiruvengadamudaiyan Venkatesa Perumal Temple",
      "district": "Chennai District",
      "address": "Arulmigu Byragimadam Arulmigu Thiruvengadamudaiyan Venkatesa Perumal Temple, Nsc Bose Road, Chennai",
      "pincode": "600079",
      "income_category": "46_iii"
    },
    {
      "temple_id": "TM000136",
      "temple_name": "Arulmigu Balasubramaniya Swami & Allaimman Temple",
      "district": "Chennai District",
      "address": "Arulmigu Balasubramaniya Swami & Allaimman Temple, Teynampet, Chennai",
      "pincode": "600018",
      "income_category": "46_iii"
    },
    {
      "temple_id": "TM000145",
      "temple_name": "Arulmigu Adhipureshwarar & Athikesavaperumal Temple",
      "district": "Chennai District",
      "address": "Arulmigu Adhipureshwarar & Athikesavaperumal Temple, Chindadiripet, Chennai",
      "pincode": "600002",
      "income_category": "46_iii"
    },
    {
      "temple_id": "TM000150",
      "temple_name": "Arulmigu Thiruvattewarar Temple",
      "district": "Chennai District",
      "address": "Arulmigu Thiruvattewarar Temple, Triplicane, Chennai",
      "pincode": "600005",
      "income_category": "46_iii"
    },
    {
      "temple_id": "TM000157",
      "temple_name": "Arulmigu Ekambareswar Temple",
      "district": "Chennai District",
      "address": "Arulmigu Ekambareswar Temple, Aminjikarai, Chennai",
      "pincode": "600029",
      "income_category": "46_iii"
    },
    {
      "temple_id": "TM000159",
      "temple_name": "Arulmigu Prasanna Venkatesa Perumal Arul Sakthi Vinayagar Gangaiamman Temple",
      "district": "Chennai District",
      "address": "Arulmigu Prasanna Venkatesa Perumal Arul Sakthi Vinayagar Gangaiamman Temple, Choolaimedu, Chennai",
      "pincode": "600094",
      "income_category": "46_iii"
    },
    {
      "temple_id": "TM000165",
      "temple_name": "Arulmigu Pidari Uthanachi Amman Mangaleswarar Balavinayagar Temples",
      "district": "Chennai District",
      "address": "Arulmigu Pidari Uthanachi Amman Mangaleswarar Balavinayagar Temples, Arumbakkam, Chennai",
      "pincode": "600106",
      "income_category": "46_iii"
    },
    {
      "temple_id": "TM000169",
      "temple_name": "Arulmigu Ekambareswarar Temple",
      "district": "Chennai District",
      "address": "Arulmigu Ekambareswarar Temple, Poonga Nagar, Chennai",
      "pincode": "600003",
      "income_category": "46_iii"
    },
    {
      "temple_id": "TM000180",
      "temple_name": "Arulmigu Kasi Viswanathaswami And Ellaiamman Temple",
      "district": "Chennai District",
      "address": "Arulmigu Kasi Viswanathaswami And Ellaiamman Temple, Mambalm, Chennai",
      "pincode": "600033",
      "income_category": "46_iii"
    },
    {
      "temple_id": "TM000181",
      "temple_name": "Arulmigu Bhashyakara Adi Chenna Kesava Perumal Temple",
      "district": "Chennai District",
      "address": "Arulmigu Bhashyakara Adi Chenna Kesava Perumal Temple, Mambalm, Chennai",
      "pincode": "600033",
      "income_category": "46_iii"
    },
    {
      "temple_id": "TM000183",
      "temple_name": "Arulmigu Vallbha Maha Ganapathy Temple",
      "district": "Chennai District",
      "address": "Arulmigu Vallbha Maha Ganapathy Temple, Mambalm, Chennai",
      "pincode": "600033",
      "income_category": "46_iii"
    },
    {
      "temple_id": "TM000189",
      "temple_name": "Arulmigu Makaliamman Temple",
      "district": "Chennai District",
      "address": "Arulmigu Makaliamman Temple, Anna Nagar, Chennai",
      "pincode": "600040",
      "income_category": "46_iii"
    },
    {
      "temple_id": "TM000192",
      "temple_name": "Arulmigu Sathyanarayana Perumal Temple",
      "district": "Chennai District",
      "address": "Arulmigu Sathyanarayana Perumal Temple, West Mamabalam, Chennai",
      "pincode": "600033",
      "income_category": "46_iii"
    },
    {
      "temple_id": "TM000198",
      "temple_name": "Arulmigu Selliamman Muthiamman Temple",
      "district": "Chennai District",
      "address": "Arulmigu Selliamman Muthiamman Temple, Ayanavaram, Chennai",
      "pincode": "600023",
      "income_category": "46_iii"
    },
    {
      "temple_id": "TM000202",
      "temple_name": "Arulmigu Dhandeewarar Temple",
      "district": "Chennai District",
      "address": "Arulmigu Dhandeewarar Temple, Velachery, Chennai",
      "pincode": "600042",
      "income_category": "46_iii"
    },
    {
      "temple_id": "TM000203",
      "temple_name": "Arulmigu Yoga Narasimma Swamy Temple",
      "district": "Chennai District",
      "address": "Arulmigu Yoga Narasimma Swamy Temple, Velachery, Chennai",
      "pincode": "600042",
      "income_category": "46_iii"
    },
    {
      "temple_id": "TM000204",
      "temple_name": "Arulmigu Selliamman Temple",
      "district": "Chennai District",
      "address": "Arulmigu Selliamman Temple, Velachery, Chennai",
      "pincode": "600042",
      "income_category": "46_iii"
    },
    {
      "temple_id": "TM000207",
      "temple_name": "Arulmigu Kurungaleeshwarar And Vaikundavasa Perumal Temple",
      "district": "Chennai District",
      "address": "Arulmigu Kurungaleeshwarar And Vaikundavasa Perumal Temple, Koyambedu, Chennai",
      "pincode": "600107",
      "income_category": "46_iii"
    },
    {
      "temple_id": "TM000208",
      "temple_name": "Arulmigu Marghasagheshwarar Temple",
      "district": "Chennai District",
      "address": "Arulmigu Marghasagheshwarar Temple, Maduravoyal, Chennai",
      "pincode": "600095",
      "income_category": "46_iii"
    },
    {
      "temple_id": "TM000213",
      "temple_name": "Arulmigu Dhenupureeshwarar Temple",
      "district": "Chengalpattu District",
      "address": "Arulmigu Dhenupureeshwarar Temple, Madampakkam, Chennai",
      "pincode": "600126",
      "income_category": "46_iii"
    },
    {
      "temple_id": "TM000214",
      "temple_name": "Arulmigu Ramanadheeshwarar Temple",
      "district": "Chennai District",
      "address": "Arulmigu Ramanadheeshwarar Temple, Porur, Chennai",
      "pincode": "600116",
      "income_category": "46_iii"
    },
    {
      "temple_id": "TM000215",
      "temple_name": "Arulmigu Lakshmi Vinayagar Temple",
      "district": "Chennai District",
      "address": "Arulmigu Lakshmi Vinayagar Temple, Valasarawakkam, Chennai",
      "pincode": "600087",
      "income_category": "46_iii"
    },
    {
      "temple_id": "TM000217",
      "temple_name": "Arulmigu Angala Parameshwari And Kasi Viswanathar Temple",
      "district": "Chennai District",
      "address": "Arulmigu Angala Parameshwari And Kasi Viswanathar Temple, Choolai, Chennai",
      "pincode": "600112",
      "income_category": "46_iii"
    },
    {
      "temple_id": "TM000221",
      "temple_name": "Arulmigu Bhavani Amman Temple",
      "district": "Chennai District",
      "address": "Arulmigu Bhavani Amman Temple, Mutamil Nager, Chennai",
      "pincode": "600118",
      "income_category": "46_iii"
    },
    {
      "temple_id": "TM000232",
      "temple_name": "Arulmigu Gangadeeswarar Temple",
      "district": "Chennai District",
      "address": "Arulmigu Gangadeeswarar Temple, Purasawalkam, Chennai",
      "pincode": "600084",
      "income_category": "46_iii"
    },
    {
      "temple_id": "TM000238",
      "temple_name": "Arulmigu Ranganatha Perumal Temple",
      "district": "Chengalpattu District",
      "address": "Arulmigu Ranganatha Perumal Temple, Thiruneermalai, Chennai",
      "pincode": "600044",
      "income_category": "46_iii"
    },
    {
      "temple_id": "TM000250",
      "temple_name": "Arulmigu Katchaleeshwarar Temple",
      "district": "Chennai District",
      "address": "Arulmigu Katchaleeshwarar Temple, Parrys, Chennai",
      "pincode": "600001",
      "income_category": "46_iii"
    },
    {
      "temple_id": "TM000270",
      "temple_name": "Arulmigu Sri Navasakthi Vinayakar Temple",
      "district": "Chennai District",
      "address": "Arulmigu Sri Navasakthi Vinayakar Temple, Mylapore, Chennai",
      "pincode": "600004",
      "income_category": "46_iii"
    },
    {
      "temple_id": "TM000276",
      "temple_name": "Arulmigu Dharmaraja Thirowpathiyamman Temple",
      "district": "Chennai District",
      "address": "Arulmigu Dharmaraja Thirowpathiyamman Temple, Kilpauk, Chennai",
      "pincode": "600010",
      "income_category": "46_iii"
    },
    {
      "temple_id": "TM000277",
      "temple_name": "Arulmigu Chellapillairayar Temple",
      "district": "Chennai District",
      "address": "Arulmigu Chellapillairayar Temple, Ootery, Chennai",
      "pincode": "600012",
      "income_category": "46_iii"
    },
    {
      "temple_id": "TM000278",
      "temple_name": "Arulmigu Reveeswar Temple",
      "district": "Chennai District",
      "address": "Arulmigu Reveeswar Temple, Vyasarpadi, Chennai",
      "pincode": "600039",
      "income_category": "46_iii"
    },
    {
      "temple_id": "TM000279",
      "temple_name": "Arulmigu Palathaamman Temple",
      "district": "Chennai District",
      "address": "Arulmigu Palathaamman Temple, Vyasarpadi, Chennai",
      "pincode": "600039",
      "income_category": "46_iii"
    },
    {
      "temple_id": "TM000283",
      "temple_name": "Arulmigu Komaleeswarar Temple",
      "district": "Chennai District",
      "address": "Arulmigu Komaleeswarar Temple, Komaleeswaran Pet, Chennai",
      "pincode": "600002",
      "income_category": "46_iii"
    },
    {
      "temple_id": "TM000299",
      "temple_name": "Arulmigu Siva Vishnu Temple",
      "district": "Chennai District",
      "address": "Arulmigu Siva Vishnu Temple, Anna Nagar West Extension, Chennai",
      "pincode": "600101",
      "income_category": "46_iii"
    },
    {
      "temple_id": "TM000300",
      "temple_name": "Arulmigu Velleswarar Temple",
      "district": "Chennai District",
      "address": "Arulmigu Velleswarar Temple, Mylapore, Chennai",
      "pincode": "600004",
      "income_category": "46_iii"
    },
    {
      "temple_id": "TM000302",
      "temple_name": "Arulmigu Sengaluneer Vinayagar Koluramman Temple",
      "district": "Chennai District",
      "address": "Arulmigu Sengaluneer Vinayagar Koluramman Temple, V.O.C.Nagar, Chennai",
      "pincode": "600003",
      "income_category": "46_iii"
    },
    {
      "temple_id": "TM000304",
      "temple_name": "Arulmigu Angalaamman Temple",
      "district": "Chennai District",
      "address": "Arulmigu Angalaamman Temple, Royapuram, Chennai",
      "pincode": "600013",
      "income_category": "46_iii"
    },
    {
      "temple_id": "TM000311",
      "temple_name": "Arulmigu Aranga Natha Swamy Temple",
      "district": "Chennai District",
      "address": "Arulmigu Aranga Natha Swamy Temple, Geroge Down, Chennai",
      "pincode": "600079",
      "income_category": "46_iii"
    },
    {
      "temple_id": "TM000313",
      "temple_name": "Arulmigu Angala Parameshwari Temple",
      "district": "Chennai District",
      "address": "Arulmigu Angala Parameshwari Temple, Vallalar Nagar, Chennai",
      "pincode": "600079",
      "income_category": "46_iii"
    },
    {
      "temple_id": "TM000317",
      "temple_name": "Arulmigu Agatheeswara Swamy Temple",
      "district": "Chennai District",
      "address": "Arulmigu Agatheeswara Swamy Temple, Villivakkam, Chennai",
      "pincode": "600049",
      "income_category": "46_iii"
    },
    {
      "temple_id": "TM000329",
      "temple_name": "Arulmigu Arunachaleswarar And Varadaraja Perumal Temple",
      "district": "Chennai District",
      "address": "Arulmigu Arunachaleswarar And Varadaraja Perumal Temple, Sowcarpet, Chennai",
      "pincode": "600079",
      "income_category": "46_iii"
    },
    {
      "temple_id": "TM000335",
      "temple_name": "Arulmigu Kalyana Varadaraja Perumal Temple",
      "district": "Chennai District",
      "address": "Arulmigu Kalyana Varadaraja Perumal Temple, Thiruvottriyur, Chennai",
      "pincode": "600019",
      "income_category": "46_iii"
    },
    {
      "temple_id": "TM000338",
      "temple_name": "Arulmigu Pachaiamman Temple",
      "district": "Chennai District",
      "address": "Arulmigu Pachaiamman Temple, Mount Road, Chennai",
      "pincode": "600002",
      "income_category": "46_iii"
    },
    {
      "temple_id": "TM000342",
      "temple_name": "Arulmigu Mallikeswarar Temple",
      "district": "Chennai District",
      "address": "Arulmigu Mallikeswarar Temple, Muthialpet, Chennai",
      "pincode": "600001",
      "income_category": "46_iii"
    },
    {
      "temple_id": "TM000350",
      "temple_name": "Arulmigu Chennai Sri Kalikambal Kamadeswarar Devasthanam",
      "district": "Chennai District",
      "address": "Arulmigu Chennai Sri Kalikambal Kamadeswarar Devasthanam, Mannadi, Chennai",
      "pincode": "600001",
      "income_category": "46_iii"
    },
    {
      "temple_id": "TM000351",
      "temple_name": "Arulmigu Chennai Malleswarar Chenna Kesava Perumal Temple",
      "district": "Chennai District",
      "address": "Arulmigu Chennai Malleswarar Chenna Kesava Perumal Temple, Park Town, Chennai",
      "pincode": "600003",
      "income_category": "46_iii"
    },
    {
      "temple_id": "TM000357",
      "temple_name": "Arulmigu Mannatheswarar And Pachaiamman Temple",
      "district": "Chennai District",
      "address": "Arulmigu Mannatheswarar And Pachaiamman Temple, Vada Thirumullaivoyal, Chennai",
      "pincode": "600062",
      "income_category": "46_iii"
    },
    {
      "temple_id": "TM000366",
      "temple_name": "Arulmigu Panchali Amman Temple",
      "district": "Chennai District",
      "address": "Arulmigu Panchali Amman Temple, Arumbakkam, Chennai",
      "pincode": "600106",
      "income_category": "46_iii"
    },
    {
      "temple_id": "TM000371",
      "temple_name": "Arulmigu Kadumpadi Sinnamman Temple",
      "district": "Chennai District",
      "address": "Arulmigu Kadumpadi Sinnamman Temple, Saidapet, Chennai",
      "pincode": "600015",
      "income_category": "46_iii"
    },
    {
      "temple_id": "TM000372",
      "temple_name": "Arulmigu Sivavishnu Temple",
      "district": "Chennai District",
      "address": "Arulmigu Sivavishnu Temple, T.Nagar, Chennai",
      "pincode": "600017",
      "income_category": "46_iii"
    },
    {
      "temple_id": "TM000387",
      "temple_name": "Arulmigu Prasanna Vinayagar Temple",
      "district": "Chennai District",
      "address": "Arulmigu Prasanna Vinayagar Temple, Park Town, Chennai",
      "pincode": "600003",
      "income_category": "46_iii"
    },
    {
      "temple_id": "TM000388",
      "temple_name": "Arulmigu Sree Muthu Kumara Swamy Devasthanam",
      "district": "Chennai District",
      "address": "Arulmigu Sree Muthu Kumara Swamy Devasthanam, Park Town, Chennai",
      "pincode": "600003",
      "income_category": "46_iii"
    },
    {
      "temple_id": "TM000407",
      "temple_name": "Arulmigu Arunachaleeswarar Temple",
      "district": "Chennai District",
      "address": "Arulmigu Arunachaleeswarar Temple, Tondiarpet, Chennai",
      "pincode": "600081",
      "income_category": "46_iii"
    },
    {
      "temple_id": "TM000412",
      "temple_name": "Arulmigu Anantha Padmanabha Swamy Temple",
      "district": "Chennai District",
      "address": "Arulmigu Anantha Padmanabha Swamy Temple, Gandhi Nagar, Chennai",
      "pincode": "600020",
      "income_category": "46_iii"
    },
    {
      "temple_id": "TM000413",
      "temple_name": "Arulmigu Kanniga Parameshwari Temple",
      "district": "Chennai District",
      "address": "Arulmigu Kanniga Parameshwari Temple, George Town, Chennai",
      "pincode": "600001",
      "income_category": "46_iii"
    },
    {
      "temple_id": "TM000414",
      "temple_name": "Arulmigu Viyakrapureeswar Alias Vengeshwarar Algar Perumal And Nagathamman Temple",
      "district": "Chennai District",
      "address": "Arulmigu Viyakrapureeswar Alias Vengeshwarar Algar Perumal And Nagathamman Temple, Vadapalani, Chennai",
      "pincode": "600026",
      "income_category": "46_iii"
    },
    {
      "temple_id": "TM000415",
      "temple_name": "Arulmigu Muthu Mariyamman Temple",
      "district": "Chennai District",
      "address": "Arulmigu Muthu Mariyamman Temple, K.K.Nagar, Chennai",
      "pincode": "600078",
      "income_category": "46_iii"
    },
    {
      "temple_id": "TM000416",
      "temple_name": "Arulmigu Varasidhi Vinayagar Temple",
      "district": "Chennai District",
      "address": "Arulmigu Varasidhi Vinayagar Temple, Nungambakkam, Chennai",
      "pincode": "600034",
      "income_category": "46_iii"
    },
    {
      "temple_id": "TM000432",
      "temple_name": "Arulmigu Srinivasa Perumal Temple",
      "district": "Chennai District",
      "address": "Arulmigu Srinivasa Perumal Temple, Purasawalkam, Chennai",
      "pincode": "600084",
      "income_category": "46_iii"
    },
    {
      "temple_id": "TM000446",
      "temple_name": "Arulmigu Kasiwisvanatha Swamy Temple",
      "district": "Chennai District",
      "address": "Arulmigu Kasiwisvanatha Swamy Temple, Kondithoppu, Chennai",
      "pincode": "600079",
      "income_category": "46_iii"
    },
    {
      "temple_id": "TM000466",
      "temple_name": "Arulmigu Sundara Vinayagar- Selva Vinayagar & Anchaneyar Temple",
      "district": "Chennai District",
      "address": "Arulmigu Sundara Vinayagar- Selva Vinayagar & Anchaneyar Temple, Mylapore, Chennai",
      "pincode": "600004",
      "income_category": "46_iii"
    },
    {
      "temple_id": "TM000467",
      "temple_name": "Arulmigu Vedandha Desegar Temple",
      "district": "Chennai District",
      "address": "Arulmigu Vedandha Desegar Temple, Mylapore, Chennai",
      "pincode": "600004",
      "income_category": "46_iii"
    },
    {
      "temple_id": "TM000468",
      "temple_name": "Arulmigu Appar Swamy Temple",
      "district": "Chennai District",
      "address": "Arulmigu Appar Swamy Temple, Mylapore, Chennai",
      "pincode": "600004",
      "income_category": "46_iii"
    },
    {
      "temple_id": "TM000469",
      "temple_name": "Arulmigu Nagathamman Temple",
      "district": "Chennai District",
      "address": "Arulmigu Nagathamman Temple, Rayapettai, Chennai",
      "pincode": "600014",
      "income_category": "46_iii"
    },
    {
      "temple_id": "TM000483",
      "temple_name": "Arulmigu Chandra Mouleeshwarar Temple",
      "district": "Chennai District",
      "address": "Arulmigu Chandra Mouleeshwarar Temple, Anna Nagar, Chennai",
      "pincode": "600004",
      "income_category": "46_iii"
    },
    {
      "temple_id": "TM000492",
      "temple_name": "Arulmigu Sivasubramaniam Swamy Temple",
      "district": "Chennai District",
      "address": "Arulmigu Sivasubramaniam Swamy Temple, Saidapet, Chennai",
      "pincode": "600015",
      "income_category": "46_iii"
    },
    {
      "temple_id": "TM000498",
      "temple_name": "Arulmigu Chinnakadai Yamman  Renugaparameshwari Temple",
      "district": "Chennai District",
      "address": "Arulmigu Chinnakadai Yamman  Renugaparameshwari Temple, Mint Street, Chennai",
      "pincode": "600003",
      "income_category": "46_iii"
    },
    {
      "temple_id": "TM000523",
      "temple_name": "Arulmigu Varasidhi Vinayagar Temple",
      "district": "Chennai District",
      "address": "Arulmigu Varasidhi Vinayagar Temple, Besant Nagar, Chennai",
      "pincode": "600090",
      "income_category": "46_iii"
    },
    {
      "temple_id": "TM000556",
      "temple_name": "Arulmigu Santhana Srinivasa Perumal Temple",
      "district": "Chennai District",
      "address": "Arulmigu Santhana Srinivasa Perumal Temple, Mugapair, Chennai",
      "pincode": "600037",
      "income_category": "46_iii"
    },
    {
      "temple_id": "TM000563",
      "temple_name": "Arulmigu Eraniyamman Temple",
      "district": "Chengalpattu District",
      "address": "Arulmigu Eraniyamman Temple, Perungalathoor, Chennai",
      "pincode": "600063",
      "income_category": "46_iii"
    },
    {
      "temple_id": "TM000741",
      "temple_name": "Arulmigu Kariya Manikka Perumal Temple",
      "district": "Chennai District",
      "address": "Arulmigu Kariya Manikka Perumal Temple, Ayanavaram, Chennai",
      "pincode": "600023",
      "income_category": "46_iii"
    },
    {
      "temple_id": "TM000924",
      "temple_name": "Arulmigu Gangai Amman Temple",
      "district": "Chennai District",
      "address": "Arulmigu Gangai Amman Temple, Choolaimedu, Chennai",
      "pincode": "600094",
      "income_category": "46_iii"
    },
    {
      "temple_id": "TM001331",
      "temple_name": "Arulmigu Selliamman Temple",
      "district": "Vellore District",
      "address": "Arulmigu Selliamman Temple, Thottapalayam, Vellore",
      "pincode": "632004",
      "income_category": "46_iii"
    },
    {
      "temple_id": "TM001350",
      "temple_name": "Arulmigu Sornamugeeswarar Temple",
      "district": "Vellore District",
      "address": "Arulmigu Sornamugeeswarar Temple, Gandhi Nagar, Katpadi",
      "pincode": "632006",
      "income_category": "46_iii"
    },
    {
      "temple_id": "TM001358",
      "temple_name": "Arulmigu Subramaniaswamy Alias Balamurugan Temple",
      "district": "Ranipet District",
      "address": "Arulmigu Subramaniaswamy Alias Balamurugan Temple, Rathinagiri, Keelminnal",
      "pincode": "632517",
      "income_category": "46_iii"
    },
    {
      "temple_id": "TM001361",
      "temple_name": "Arulmigu Ellaiamman Temple",
      "district": "Vellore District",
      "address": "Arulmigu Ellaiamman Temple, Vettuvanam",
      "pincode": "635809",
      "income_category": "46_iii"
    },
    {
      "temple_id": "TM001384",
      "temple_name": "Arulmigu Subramaniyaswamy Temple",
      "district": "Thirupathur District",
      "address": "Arulmigu Subramaniyaswamy Temple, Pasalikuttai",
      "pincode": "635653",
      "income_category": "46_iii"
    },
    {
      "temple_id": "TM001386",
      "temple_name": "Arulmigu Puthumariamman Temple",
      "district": "Thirupathur District",
      "address": "Arulmigu Puthumariamman Temple, Puthukoil, Bethakallupalli",
      "pincode": "635801",
      "income_category": "46_iii"
    },
    {
      "temple_id": "TM001388",
      "temple_name": "Arulmigu Subramaniaswamy Temple",
      "district": "Vellore District",
      "address": "Arulmigu Subramaniaswamy Temple, Vallimalai",
      "pincode": "632520",
      "income_category": "46_iii"
    },
    {
      "temple_id": "TM001390",
      "temple_name": "Arulmigu Margabantheeswarar Temple",
      "district": "Vellore District",
      "address": "Arulmigu Margabantheeswarar Temple, Virinjipuram",
      "pincode": "632104",
      "income_category": "46_iii"
    },
    {
      "temple_id": "TM001393",
      "temple_name": "Arulmigu Porkodiamman Temple",
      "district": "Vellore District",
      "address": "Arulmigu Porkodiamman Temple, Vallandaramam",
      "pincode": "632104",
      "income_category": "46_iii"
    },
    {
      "temple_id": "TM001422",
      "temple_name": "Arulmigu Periya Anjaneyar Temple",
      "district": "Thirupathur District",
      "address": "Arulmigu Periya Anjaneyar Temple, Ambur",
      "pincode": "635802",
      "income_category": "46_iii"
    },
    {
      "temple_id": "TM001500",
      "temple_name": "Arulmigu Gangaiamman Temple",
      "district": "Vellore District",
      "address": "Arulmigu Gangaiamman Temple, Gopalapuram, Gudiyatham",
      "pincode": "632602",
      "income_category": "46_iii"
    },
    {
      "temple_id": "TM001502",
      "temple_name": "Arulmigu Lakshmi Narasimmaswamy Temple",
      "district": "Ranipet District",
      "address": "Arulmigu Lakshmi Narasimmaswamy Temple, Sholinghur",
      "pincode": "631102",
      "income_category": "46_iii"
    },
    {
      "temple_id": "TM001506",
      "temple_name": "Arulmigu Subramanyaswamy Temple",
      "district": "Tiruvallur District",
      "address": "Arulmigu Subramanyaswamy Temple, Tiruttani",
      "pincode": "631209",
      "income_category": "46_iii"
    },
    {
      "temple_id": "TM001548",
      "temple_name": "Arulmigu Veeraraghavaswamy Devasthanam",
      "district": "Tiruvallur District",
      "address": "Arulmigu Veeraraghavaswamy Devasthanam, Veeragavapuram, Tiruvallur",
      "pincode": "602001",
      "income_category": "46_iii"
    },
    {
      "temple_id": "TM001553",
      "temple_name": "Arulmigu Theertheswarar Temple",
      "district": "Tiruvallur District",
      "address": "Arulmigu Theertheswarar Temple, Tiruvallur",
      "pincode": "601204",
      "income_category": "46_iii"
    },
    {
      "temple_id": "TM001591",
      "temple_name": "Arulmigu Sengalamman Temple",
      "district": "Tiruvallur District",
      "address": "Arulmigu Sengalamman Temple, Sembulivaram",
      "pincode": "600067",
      "income_category": "46_iii"
    },
    {
      "temple_id": "TM001596",
      "temple_name": "Arulmigu Balasubramaniya Swamy Temple",
      "district": "Tiruvallur District",
      "address": "Arulmigu Balasubramaniya Swamy Temple, Chinnambedu",
      "pincode": "601206",
      "income_category": "46_iii"
    },
    {
      "temple_id": "TM001642",
      "temple_name": "Arulmigu Bhavaniamman Temple",
      "district": "Tiruvallur District",
      "address": "Arulmigu Bhavaniamman Temple, Ellapuram",
      "pincode": "601102",
      "income_category": "46_iii"
    },
    {
      "temple_id": "TM001644",
      "temple_name": "Arulmigu Poongavanathamman Alias Ankalaparameswari Temple",
      "district": "Tiruvallur District",
      "address": "Arulmigu Poongavanathamman Alias Ankalaparameswari Temple, Putlur",
      "pincode": "602025",
      "income_category": "46_iii"
    },
    {
      "temple_id": "TM001646",
      "temple_name": "Arulmigu Devi Karumariamman Temple",
      "district": "Tiruvallur District",
      "address": "Arulmigu Devi Karumariamman Temple, Thiruverkadu",
      "pincode": "600077",
      "income_category": "46_iii"
    },
    {
      "temple_id": "TM001649",
      "temple_name": "Arulmigu Kamakshi Amman Temple",
      "district": "Kancheepuram District",
      "address": "Arulmigu Kamakshi Amman Temple, Mangadu",
      "pincode": "600122",
      "income_category": "46_iii"
    },
    {
      "temple_id": "TM001660",
      "temple_name": "Arulmigu Katchabeswarar Temple",
      "district": "Kancheepuram District",
      "address": "Arulmigu Katchabeswarar Temple, Kancheepuram",
      "pincode": "631501",
      "income_category": "46_iii"
    },
    {
      "temple_id": "TM001663",
      "temple_name": "Arulmigu Vaigunthaperumal Temple",
      "district": "Kancheepuram District",
      "address": "Arulmigu Vaigunthaperumal Temple, Periya Kancheepuram, Kancheepuram",
      "pincode": "631501",
      "income_category": "46_iii"
    },
    {
      "temple_id": "TM001688",
      "temple_name": "Arulmigu Vedagireeswarar Temple",
      "district": "Chengalpattu District",
      "address": "Arulmigu Vedagireeswarar Temple, Thirukkalukkundram",
      "pincode": "603109",
      "income_category": "46_iii"
    },
    {
      "temple_id": "TM001701",
      "temple_name": "Arulmigu Subramaniya Swami Temple",
      "district": "Kancheepuram District",
      "address": "Arulmigu Subramaniya Swami Temple, Kancheepuram",
      "pincode": "631502",
      "income_category": "46_iii"
    },
    {
      "temple_id": "TM001708",
      "temple_name": "Arulmigu Thirukachi Nambigal and Varadharaja Perumal Temple",
      "district": "Tiruvallur District",
      "address": "Arulmigu Thirukachi Nambigal and Varadharaja Perumal Temple, Poonamallee",
      "pincode": "600056",
      "income_category": "46_iii"
    },
    {
      "temple_id": "TM001709",
      "temple_name": "Arulmigu Krishnaswamy & Kodhandaramaswamy Temple",
      "district": "Kancheepuram District",
      "address": "Arulmigu Krishnaswamy & Kodhandaramaswamy Temple, Sembarambakkam Lake, Malayam Bakkam",
      "pincode": "600123",
      "income_category": "46_iii"
    },
    {
      "temple_id": "TM001719",
      "temple_name": "Arulmigu Maari Chinnamman Temple",
      "district": "Chengalpattu District",
      "address": "Arulmigu Maari Chinnamman Temple, Kadambadi",
      "pincode": "603104",
      "income_category": "46_iii"
    },
    {
      "temple_id": "TM001734",
      "temple_name": "Arulmigu Kandaswamy Temple",
      "district": "Chengalpattu District",
      "address": "Arulmigu Kandaswamy Temple, Thiruporur",
      "pincode": "603110",
      "income_category": "46_iii"
    },
    {
      "temple_id": "TM001760",
      "temple_name": "Arulmigu Nageshwara Swamy Temple",
      "district": "Kancheepuram District",
      "address": "Arulmigu Nageshwara Swamy Temple, Thirunageshwaram",
      "pincode": "600069",
      "income_category": "46_iii"
    },
    {
      "temple_id": "TM001776",
      "temple_name": "Arulmigu Balasubramaniya Swamy Temple",
      "district": "Kancheepuram District",
      "address": "Arulmigu Balasubramaniya Swamy Temple, Ilaiyanarvellore",
      "pincode": "631603",
      "income_category": "46_iii"
    },
    {
      "temple_id": "TM001784",
      "temple_name": "Arulmigu Sundareshwarar Swamy Temple",
      "district": "Kancheepuram District",
      "address": "Arulmigu Sundareshwarar Swamy Temple, Kovoor, Kovoor",
      "pincode": "600128",
      "income_category": "46_iii"
    },
    {
      "temple_id": "TM001786",
      "temple_name": "Arulmigu Bakthavachala Perumal Temple",
      "district": "Tiruvallur District",
      "address": "Arulmigu Bakthavachala Perumal Temple, Thiruninravoor",
      "pincode": "602024",
      "income_category": "46_iii"
    },
    {
      "temple_id": "TM001794",
      "temple_name": "Arulmigu Kailasanathar & Dhakshanamoorthi Temple",
      "district": "Kancheepuram District",
      "address": "Arulmigu Kailasanathar & Dhakshanamoorthi Temple, Govindavadi, Kancheepuram",
      "pincode": "631502",
      "income_category": "46_iii"
    },
    {
      "temple_id": "TM001797",
      "temple_name": "Arulmigu Subramaniyaswamy Temple",
      "district": "Kancheepuram District",
      "address": "Arulmigu Subramaniyaswamy Temple, Vallakottai",
      "pincode": "602105",
      "income_category": "46_iii"
    },
    {
      "temple_id": "TM001816",
      "temple_name": "Arulmigu Ekambaranathar Temple",
      "district": "Kancheepuram District",
      "address": "Arulmigu Ekambaranathar Temple, Kancheepuram",
      "pincode": "631502",
      "income_category": "46_iii"
    },
    {
      "temple_id": "TM001817",
      "temple_name": "Arulmigu Chithragupthaswamy Temple",
      "district": "Kancheepuram District",
      "address": "Arulmigu Chithragupthaswamy Temple, Kancheepuram",
      "pincode": "631502",
      "income_category": "46_iii"
    },
    {
      "temple_id": "TM001825",
      "temple_name": "Arulmigu Adhipeeda Parameshwari Temple",
      "district": "Kancheepuram District",
      "address": "Arulmigu Adhipeeda Parameshwari Temple, Kancheepuram",
      "pincode": "631502",
      "income_category": "46_iii"
    },
    {
      "temple_id": "TM001826",
      "temple_name": "Arulmigu Vazhakarutheeswarar Temple",
      "district": "Kancheepuram District",
      "address": "Arulmigu Vazhakarutheeswarar Temple, Kancheepuram",
      "pincode": "631502",
      "income_category": "46_iii"
    },
    {
      "temple_id": "TM001829",
      "temple_name": "Arulmigu Jaganatha Perumal Alias Thirumazhisai Azhwar Temple",
      "district": "Tiruvallur District",
      "address": "Arulmigu Jaganatha Perumal Alias Thirumazhisai Azhwar Temple, Thirumazhisai",
      "pincode": "600124",
      "income_category": "46_iii"
    },
    {
      "temple_id": "TM001839",
      "temple_name": "Arulmigu Nithya Kalyana Perumal Temple",
      "district": "Chengalpattu District",
      "address": "Arulmigu Nithya Kalyana Perumal Temple, Thiruvidanthai",
      "pincode": "603112",
      "income_category": "46_iii"
    },
    {
      "temple_id": "TM001843",
      "temple_name": "Arulmigu Pataladri Narasimha Perumal TempleSingaperumal Koil",
      "district": "Chengalpattu District",
      "address": "Arulmigu Pataladri Narasimha Perumal TempleSingaperumal Koil, Chengalpattu",
      "pincode": "603204",
      "income_category": "46_iii"
    },
    {
      "temple_id": "TM001844",
      "temple_name": "Arulmigu Devanatha Perumal TempleChettipuniyam",
      "district": "Chengalpattu District",
      "address": "Arulmigu Devanatha Perumal TempleChettipuniyam",
      "pincode": "603204",
      "income_category": "46_iii"
    },
    {
      "temple_id": "TM001845",
      "temple_name": "Arulmigu Agora Veerabadra Swamy TempleHanumanthapuram",
      "district": "Chengalpattu District",
      "address": "Arulmigu Agora Veerabadra Swamy TempleHanumanthapuram",
      "pincode": "603110",
      "income_category": "46_iii"
    },
    {
      "temple_id": "TM001849",
      "temple_name": "Arulmigu Kothandaramar Temple",
      "district": "Chengalpattu District",
      "address": "Arulmigu Kothandaramar Temple, Chengalpattu",
      "pincode": "603001",
      "income_category": "46_iii"
    },
    {
      "temple_id": "TM001864",
      "temple_name": "Arulmigu Devarajaswamy Temple",
      "district": "Kancheepuram District",
      "address": "Arulmigu Devarajaswamy Temple, Little Kancheepuram",
      "pincode": "631501",
      "income_category": "46_iii"
    },
    {
      "temple_id": "TM001865",
      "temple_name": "Arulmigu Sri Kamakshi Ambal Devasthanam Temple",
      "district": "Kancheepuram District",
      "address": "Arulmigu Sri Kamakshi Ambal Devasthanam Temple, Big Kancheepuram, Kancheepuram",
      "pincode": "631502",
      "income_category": "46_iii"
    },
    {
      "temple_id": "TM001869",
      "temple_name": "Arulmigu Kaliswawar Temple",
      "district": "Kancheepuram District",
      "address": "Arulmigu Kaliswawar Temple, Seethananacheri",
      "pincode": "603106",
      "income_category": "46_iii"
    },
    {
      "temple_id": "TM001879",
      "temple_name": "Arulmigu Prasanna Venkatesaperumal Temple",
      "district": "Chengalpattu District",
      "address": "Arulmigu Prasanna Venkatesaperumal Temple, Thirumalaivaiyavur",
      "pincode": "631561",
      "income_category": "46_iii"
    },
    {
      "temple_id": "TM001881",
      "temple_name": "Arulmigu Adhikesava Perumal Alias Bhashyangara Swamy Temple",
      "district": "Kancheepuram District",
      "address": "Arulmigu Adhikesava Perumal Alias Bhashyangara Swamy Temple, Sriperumbudur",
      "pincode": "602105",
      "income_category": "46_iii"
    },
    {
      "temple_id": "TM001885",
      "temple_name": "Arulmigu Subramaniaswamy Temple",
      "district": "Kancheepuram District",
      "address": "Arulmigu Subramaniaswamy Temple, Kunrathur",
      "pincode": "600069",
      "income_category": "46_iii"
    },
    {
      "temple_id": "TM001887",
      "temple_name": "Arulmigu Sakthi Vinayagar Temple",
      "district": "Chengalpattu District",
      "address": "Arulmigu Sakthi Vinayagar Temple, Chengalpattu",
      "pincode": "603001",
      "income_category": "46_iii"
    },
    {
      "temple_id": "TM004858",
      "temple_name": "Arulmigu Sugavanesuwarar Temple",
      "district": "Salem District",
      "address": "Arulmigu Sugavanesuwarar Temple, Mettu Agraharam, Salem",
      "pincode": "636001",
      "income_category": "46_iii"
    },
    {
      "temple_id": "TM004861",
      "temple_name": "Arulmigu Kottai Mariamman Temple",
      "district": "Salem District",
      "address": "Arulmigu Kottai Mariamman Temple, Town Bus Stand, Salem",
      "pincode": "636001",
      "income_category": "46_iii"
    },
    {
      "temple_id": "TM004862",
      "temple_name": "Arulmigu Mariamman Temple",
      "district": "Salem District",
      "address": "Arulmigu Mariamman Temple, Shevapet, Salem",
      "pincode": "636002",
      "income_category": "46_iii"
    },
    {
      "temple_id": "TM004865",
      "temple_name": "Arulmigu Vennankodi Muniyappa Swamy Temple",
      "district": "Salem District",
      "address": "Arulmigu Vennankodi Muniyappa Swamy Temple, Jagir Ammmapalayam, Salem",
      "pincode": "636302",
      "income_category": "46_iii"
    },
    {
      "temple_id": "TM004866",
      "temple_name": "Arulmigu Siddheswarar Gnanasarguru Balamurugan Temple",
      "district": "Salem District",
      "address": "Arulmigu Siddheswarar Gnanasarguru Balamurugan Temple, Kanjamalai, Perumampatti",
      "pincode": "637502",
      "income_category": "46_iii"
    },
    {
      "temple_id": "TM004867",
      "temple_name": "Arulmigu Alagirinathaswamy Temple",
      "district": "Salem District",
      "address": "Arulmigu Alagirinathaswamy Temple, Fort, Salem",
      "pincode": "636001",
      "income_category": "46_iii"
    },
    {
      "temple_id": "TM004868",
      "temple_name": "Arulmigu Kannika Parameswariamman Temple",
      "district": "Salem District",
      "address": "Arulmigu Kannika Parameswariamman Temple, Shevapet, Salem",
      "pincode": "636002",
      "income_category": "46_iii"
    },
    {
      "temple_id": "TM004869",
      "temple_name": "Arulmigu Marriamman Kaliamman Temple",
      "district": "Salem District",
      "address": "Arulmigu Marriamman Kaliamman Temple, Gugai, Salem",
      "pincode": "636006",
      "income_category": "46_iii"
    },
    {
      "temple_id": "TM004870",
      "temple_name": "Arulmigu Mariamman Kaliamman Temple",
      "district": "Salem District",
      "address": "Arulmigu Mariamman Kaliamman Temple, Sanjeevarayanpet, Salem",
      "pincode": "636006",
      "income_category": "46_iii"
    },
    {
      "temple_id": "TM004871",
      "temple_name": "Arulmigu Ellaipidariamman Temple",
      "district": "Salem District",
      "address": "Arulmigu Ellaipidariamman Temple, Near Salem Government Arts College,, Salem",
      "pincode": "636007",
      "income_category": "46_iii"
    },
    {
      "temple_id": "TM004872",
      "temple_name": "Arulmigu Prasanna Venkatramanaswamy Temple",
      "district": "Salem District",
      "address": "Arulmigu Prasanna Venkatramanaswamy Temple, Chinna Thirupathi, Karuvalli",
      "pincode": "636305",
      "income_category": "46_iii"
    },
    {
      "temple_id": "TM004873",
      "temple_name": "Arulmigu Kailasanathar Temple",
      "district": "Salem District",
      "address": "Arulmigu Kailasanathar Temple, Near Bus Stand, Tharamangalam",
      "pincode": "636502",
      "income_category": "46_iii"
    },
    {
      "temple_id": "TM004880",
      "temple_name": "Arulmigu Mariamman Temple",
      "district": "Salem District",
      "address": "Arulmigu Mariamman Temple, Sandhaipettai, Ilampillai",
      "pincode": "637502",
      "income_category": "46_iii"
    },
    {
      "temple_id": "TM004881",
      "temple_name": "Arulmigu Varadharajaperumal Temple",
      "district": "Salem District",
      "address": "Arulmigu Varadharajaperumal Temple, Orukkamalai, Kottavaradampatti",
      "pincode": "637301",
      "income_category": "46_iii"
    },
    {
      "temple_id": "TM004882",
      "temple_name": "Arulmigu Badrakaliamman Temple",
      "district": "Salem District",
      "address": "Arulmigu Badrakaliamman Temple, Mechcheri",
      "pincode": "636453",
      "income_category": "46_iii"
    },
    {
      "temple_id": "TM004883",
      "temple_name": "Arulmigu Thanthondriswarar And Astapuja Bala Mathana Venugopalaswamy Temple",
      "district": "Salem District",
      "address": "Arulmigu Thanthondriswarar And Astapuja Bala Mathana Venugopalaswamy Temple, Belur",
      "pincode": "636104",
      "income_category": "46_iii"
    },
    {
      "temple_id": "TM004884",
      "temple_name": "Arulmigu Balasubramaniya Temple",
      "district": "Salem District",
      "address": "Arulmigu Balasubramaniya Temple, Kattukottai, Vadachennimalai",
      "pincode": "636121",
      "income_category": "46_iii"
    },
    {
      "temple_id": "TM004885",
      "temple_name": "Arulmigu Vellaipillaiyar Temple",
      "district": "Salem District",
      "address": "Arulmigu Vellaipillaiyar Temple, Attur",
      "pincode": "636102",
      "income_category": "46_iii"
    },
    {
      "temple_id": "TM004886",
      "temple_name": "Arulmigu Prasanna Nanjundeswarar Temple",
      "district": "Salem District",
      "address": "Arulmigu Prasanna Nanjundeswarar Temple, Near Bus Stand, Edappady",
      "pincode": "637101",
      "income_category": "46_iii"
    },
    {
      "temple_id": "TM004887",
      "temple_name": "Arulmigu Narasimaswamy Temple",
      "district": "Namakkal District",
      "address": "Arulmigu Narasimaswamy Temple, Near Bus Stand, Namakkal",
      "pincode": "637001",
      "income_category": "46_iii"
    },
    {
      "temple_id": "TM004890",
      "temple_name": "Arulmigu Arthanareeswarar Temple",
      "district": "Namakkal District",
      "address": "Arulmigu Arthanareeswarar Temple, Hill Temple, Tiruchengode",
      "pincode": "637211",
      "income_category": "46_iii"
    },
    {
      "temple_id": "TM004898",
      "temple_name": "Arulmigu Palapattaraimariamman Temple",
      "district": "Namakkal District",
      "address": "Arulmigu Palapattaraimariamman Temple, Namakkal",
      "pincode": "637001",
      "income_category": "46_iii"
    },
    {
      "temple_id": "TM004900",
      "temple_name": "Arulmigu Navaladi Karuppanna Swamy And Sellandiamman Temple",
      "district": "Namakkal District",
      "address": "Arulmigu Navaladi Karuppanna Swamy And Sellandiamman Temple, Mohanur",
      "pincode": "637015",
      "income_category": "46_iii"
    },
    {
      "temple_id": "TM004903",
      "temple_name": "Arulmigu Nainamalai Varadharajaperumal Temple",
      "district": "Namakkal District",
      "address": "Arulmigu Nainamalai Varadharajaperumal Temple, Minampalli",
      "pincode": "637019",
      "income_category": "46_iii"
    },
    {
      "temple_id": "TM004904",
      "temple_name": "Arulmigu Arappaleeswarar Temple",
      "district": "Namakkal District",
      "address": "Arulmigu Arappaleeswarar Temple, Valappur Nadu",
      "pincode": "637411",
      "income_category": "46_iii"
    },
    {
      "temple_id": "TM004905",
      "temple_name": "Arulmigu Athanur Amman Temple",
      "district": "Namakkal District",
      "address": "Arulmigu Athanur Amman Temple, Athanur",
      "pincode": "636301",
      "income_category": "46_iii"
    },
    {
      "temple_id": "TM004906",
      "temple_name": "Arulmigu Thulukkasoodamaiamman Temple",
      "district": "Namakkal District",
      "address": "Arulmigu Thulukkasoodamaiamman Temple, Puduppatty",
      "pincode": "637407",
      "income_category": "46_iii"
    },
    {
      "temple_id": "TM004908",
      "temple_name": "Arulmigu Kandhasamy Temple",
      "district": "Namakkal District",
      "address": "Arulmigu Kandhasamy Temple, Kalipatti",
      "pincode": "637501",
      "income_category": "46_iii"
    },
    {
      "temple_id": "TM004909",
      "temple_name": "Arulmigu Lakshminarayana Swamy And Kasivisweswarar Swamy Temple",
      "district": "Namakkal District",
      "address": "Arulmigu Lakshminarayana Swamy And Kasivisweswarar Swamy Temple, Kumarapalayam Agraharam, Kumarapalayam",
      "pincode": "638183",
      "income_category": "46_iii"
    },
    {
      "temple_id": "TM004910",
      "temple_name": "Arulmigu Chendraswamy And Someswaraswamy Temple",
      "district": "Dharmapuri District",
      "address": "Arulmigu Chendraswamy And Someswaraswamy Temple, Adhiyamankottai",
      "pincode": "636807",
      "income_category": "46_iii"
    },
    {
      "temple_id": "TM004917",
      "temple_name": "Arulmigu Muthitharaya Swamy And Thimmaraya Swamy Temple",
      "district": "Dharmapuri District",
      "address": "Arulmigu Muthitharaya Swamy And Thimmaraya Swamy Temple, Neruppur, Neruppur",
      "pincode": "636801",
      "income_category": "46_iii"
    },
    {
      "temple_id": "TM004918",
      "temple_name": "Arulmigu Senniamman Temple",
      "district": "Dharmapuri District",
      "address": "Arulmigu Senniamman Temple, In Thenpennai River Banktambal, Tambal",
      "pincode": "636906",
      "income_category": "46_iii"
    },
    {
      "temple_id": "TM004919",
      "temple_name": "Arulmigu Theerthagirishwarer Temple",
      "district": "Dharmapuri District",
      "address": "Arulmigu Theerthagirishwarer Temple, Theerthamalai",
      "pincode": "636906",
      "income_category": "46_iii"
    },
    {
      "temple_id": "TM004920",
      "temple_name": "Arulmigu Kollaburiamman Temple",
      "district": "Dharmapuri District",
      "address": "Arulmigu Kollaburiamman Temple, Near Thippampatti Kootu Road, Irumattur",
      "pincode": "635202",
      "income_category": "46_iii"
    },
    {
      "temple_id": "TM004921",
      "temple_name": "Arulmigu Chanthira Choodeswarar Temple",
      "district": "Krishnagiri District",
      "address": "Arulmigu Chanthira Choodeswarar Temple, Hill Station, Chennathur",
      "pincode": "635109",
      "income_category": "46_iii"
    },
    {
      "temple_id": "TM004925",
      "temple_name": "Arulmigu Venkatramana Swamy Temple",
      "district": "Krishnagiri District",
      "address": "Arulmigu Venkatramana Swamy Temple, Kannampalli, Kanakamutulu",
      "pincode": "635001",
      "income_category": "46_iii"
    },
    {
      "temple_id": "TM004926",
      "temple_name": "Arulmigu Anjaneya Subramaniya Swamy Temple",
      "district": "Krishnagiri District",
      "address": "Arulmigu Anjaneya Subramaniya Swamy Temple, Katinayapalli",
      "pincode": "635001",
      "income_category": "46_iii"
    },
    {
      "temple_id": "TM004927",
      "temple_name": "Arulmigu Mariamman Temple",
      "district": "Krishnagiri District",
      "address": "Arulmigu Mariamman Temple, Avadanapatti",
      "pincode": "635002",
      "income_category": "46_iii"
    },
    {
      "temple_id": "TM004928",
      "temple_name": "Arulmigu Kumaraguru Subramaniyaswamy Temple",
      "district": "Salem District",
      "address": "Arulmigu Kumaraguru Subramaniyaswamy Temple, Ammapettai, Salem",
      "pincode": "636003",
      "income_category": "46_iii"
    },
    {
      "temple_id": "TM004935",
      "temple_name": "Arulmigu Kannika Parameswariamman Temple",
      "district": "Salem District",
      "address": "Arulmigu Kannika Parameswariamman Temple, Salem",
      "pincode": "636001",
      "income_category": "46_iii"
    },
    {
      "temple_id": "TM004959",
      "temple_name": "Arulmigu Lakshmi Narasimmaswamy And Someswarar Temple",
      "district": "Salem District",
      "address": "Arulmigu Lakshmi Narasimmaswamy And Someswarar Temple, Nangavalli",
      "pincode": "636454",
      "income_category": "46_iii"
    },
    {
      "temple_id": "TM004966",
      "temple_name": "Arulmigu Angalamman Temple",
      "district": "Salem District",
      "address": "Arulmigu Angalamman Temple, Kalvadangam, Koneripatti Agraharam",
      "pincode": "637104",
      "income_category": "46_iii"
    },
    {
      "temple_id": "TM004986",
      "temple_name": "Arulmigu Mariyamman Sellandiyamman Anjaneyar Temples",
      "district": "Namakkal District",
      "address": "Arulmigu Mariyamman Sellandiyamman Anjaneyar Temples, Rasipuram",
      "pincode": "637408",
      "income_category": "46_iii"
    },
    {
      "temple_id": "TM004994",
      "temple_name": "Arulmigu Chinna Ongaliamman Temple",
      "district": "Namakkal District",
      "address": "Arulmigu Chinna Ongaliamman Temple, Kattuputhur Road, Tiruchengode",
      "pincode": "637211",
      "income_category": "46_iii"
    },
    {
      "temple_id": "TM004995",
      "temple_name": "Arulmigu Elayaperumal And Venkatramanasamy Temple",
      "district": "Namakkal District",
      "address": "Arulmigu Elayaperumal And Venkatramanasamy Temple, Korakuttai, Erayamangalam",
      "pincode": "637210",
      "income_category": "46_iii"
    },
    {
      "temple_id": "TM005006",
      "temple_name": "Arulmigu Balasubramaniyaswamy Temple",
      "district": "Namakkal District",
      "address": "Arulmigu Balasubramaniyaswamy Temple, Kabilar Malai, Kabilakuruchi",
      "pincode": "637204",
      "income_category": "46_iii"
    },
    {
      "temple_id": "TM005015",
      "temple_name": "Arulmigu Anjeneyaswamy Temple",
      "district": "Dharmapuri District",
      "address": "Arulmigu Anjeneyaswamy Temple, V.Muthampatti",
      "pincode": "635301",
      "income_category": "46_iii"
    },
    {
      "temple_id": "TM005017",
      "temple_name": "Arulmigu Singarthoppu Munishwarer Temple",
      "district": "Dharmapuri District",
      "address": "Arulmigu Singarthoppu Munishwarer Temple, Near Railway Station, Morappur",
      "pincode": "635305",
      "income_category": "46_iii"
    },
    {
      "temple_id": "TM005214",
      "temple_name": "Arulmigu Selliyamman Marriyamman Temple",
      "district": "Dharmapuri District",
      "address": "Arulmigu Selliyamman Marriyamman Temple, Kumaraswamypettai, Dharmapuri",
      "pincode": "636701",
      "income_category": "46_iii"
    },
    {
      "temple_id": "TM009759",
      "temple_name": "Arulmigu Masaniamman Temple",
      "district": "Coimbatore District",
      "address": "Arulmigu Masaniamman Temple, Anaimalai",
      "pincode": "642104",
      "income_category": "46_iii"
    },
    {
      "temple_id": "TM009760",
      "temple_name": "Arulmigu Patteeshwaraswamy Temple",
      "district": "Coimbatore District",
      "address": "Arulmigu Patteeshwaraswamy Temple, Perur",
      "pincode": "641010",
      "income_category": "46_iii"
    },
    {
      "temple_id": "TM009761",
      "temple_name": "Arulmigu Vinayagar Temple",
      "district": "Coimbatore District",
      "address": "Arulmigu Vinayagar Temple, Eachanari, Kurichi",
      "pincode": "641021",
      "income_category": "46_iii"
    },
    {
      "temple_id": "TM009762",
      "temple_name": "Arulmigu Subramaniaswamy Temple",
      "district": "Coimbatore District",
      "address": "Arulmigu Subramaniaswamy Temple, Maruthamalai",
      "pincode": "641046",
      "income_category": "46_iii"
    },
    {
      "temple_id": "TM009764",
      "temple_name": "Arulmigu Lakshminarasimma Swamy Temple",
      "district": "Coimbatore District",
      "address": "Arulmigu Lakshminarasimma Swamy Temple, South Ukkadam, Coimbatore",
      "pincode": "641001",
      "income_category": "46_iii"
    },
    {
      "temple_id": "TM009765",
      "temple_name": "Arulmigu Koniamman Temple",
      "district": "Coimbatore District",
      "address": "Arulmigu Koniamman Temple, Town Hall, Coimbatore",
      "pincode": "641001",
      "income_category": "46_iii"
    },
    {
      "temple_id": "TM009766",
      "temple_name": "Arulmigu Dhandumariamman Temple",
      "district": "Coimbatore District",
      "address": "Arulmigu Dhandumariamman Temple, Uppilipalayam, Coimbatore",
      "pincode": "641018",
      "income_category": "46_iii"
    },
    {
      "temple_id": "TM009767",
      "temple_name": "Arulmigu Baladhandayuthapani Swamy Temple",
      "district": "Coimbatore District",
      "address": "Arulmigu Baladhandayuthapani Swamy Temple, Sukkirawarapettai",
      "pincode": "641001",
      "income_category": "46_iii"
    },
    {
      "temple_id": "TM009768",
      "temple_name": "Arulmigu Velliangiriandavar Temple",
      "district": "Coimbatore District",
      "address": "Arulmigu Velliangiriandavar Temple, Velliangiri Malai, Poondi",
      "pincode": "641114",
      "income_category": "46_iii"
    },
    {
      "temple_id": "TM009770",
      "temple_name": "Arulmigu Iyyappaswamy Tirukovil",
      "district": "Coimbatore District",
      "address": "Arulmigu Iyyappaswamy Tirukovil, Venkatesakalani, Pollachi",
      "pincode": "642001",
      "income_category": "46_iii"
    },
    {
      "temple_id": "TM009771",
      "temple_name": "Arulmigu Ayyappasami Temple",
      "district": "Coimbatore District",
      "address": "Arulmigu Ayyappasami Temple, New Siddapudur, Coimbatore",
      "pincode": "641044",
      "income_category": "46_iii"
    },
    {
      "temple_id": "TM009772",
      "temple_name": "Arulmigu Mariamman Angalamman Temple",
      "district": "Coimbatore District",
      "address": "Arulmigu Mariamman Angalamman Temple, Pollachi",
      "pincode": "642001",
      "income_category": "46_iii"
    },
    {
      "temple_id": "TM009773",
      "temple_name": "Arulmigu Rathinavinayakar Temple",
      "district": "Coimbatore District",
      "address": "Arulmigu Rathinavinayakar Temple, R.S.Puram, Coimbatore",
      "pincode": "641002",
      "income_category": "46_iii"
    },
    {
      "temple_id": "TM009774",
      "temple_name": "Arulmigu Kala Kaleswarar Temple",
      "district": "Coimbatore District",
      "address": "Arulmigu Kala Kaleswarar Temple, Kovilpalayam, Sarkarsamakulam",
      "pincode": "641107",
      "income_category": "46_iii"
    },
    {
      "temple_id": "TM009775",
      "temple_name": "Arulmigu Mariyamman Vinayagar Temple",
      "district": "Coimbatore District",
      "address": "Arulmigu Mariyamman Vinayagar Temple, Sulakkal",
      "pincode": "642110",
      "income_category": "46_iii"
    },
    {
      "temple_id": "TM009776",
      "temple_name": "Arulmigu Venkatesaperumal (Alias) Srinivasaperumal Temple",
      "district": "Coimbatore District",
      "address": "Arulmigu Venkatesaperumal (Alias) Srinivasaperumal Temple, Pnpalayam, Pnpalayam",
      "pincode": "641037",
      "income_category": "46_iii"
    },
    {
      "temple_id": "TM009777",
      "temple_name": "Arulmigu Senniandavar Temple",
      "district": "Coimbatore District",
      "address": "Arulmigu Senniandavar Temple, Viralikadu",
      "pincode": "641659",
      "income_category": "46_iii"
    },
    {
      "temple_id": "TM009778",
      "temple_name": "Arulmigu Aranganathasamy Temple",
      "district": "Coimbatore District",
      "address": "Arulmigu Aranganathasamy Temple, Karamadai, Karamadai",
      "pincode": "641104",
      "income_category": "46_iii"
    },
    {
      "temple_id": "TM009779",
      "temple_name": "Arulmigu Hanumantharayar Temple",
      "district": "Coimbatore District",
      "address": "Arulmigu Hanumantharayar Temple, Idukampalayam",
      "pincode": "641302",
      "income_category": "46_iii"
    },
    {
      "temple_id": "TM009780",
      "temple_name": "Arulmigu Mariamman Mundhivinayagar Temple",
      "district": "Coimbatore District",
      "address": "Arulmigu Mariamman Mundhivinayagar Temple, Puliyakulam, Coimbatore",
      "pincode": "641045",
      "income_category": "46_iii"
    },
    {
      "temple_id": "TM009781",
      "temple_name": "Arulmigu Angalamman Temple",
      "district": "Coimbatore District",
      "address": "Arulmigu Angalamman Temple, Othakkalmandapam, Coimbatore",
      "pincode": "641032",
      "income_category": "46_iii"
    },
    {
      "temple_id": "TM009782",
      "temple_name": "Arulmigu Gothandaramar Temple",
      "district": "Coimbatore District",
      "address": "Arulmigu Gothandaramar Temple, Anupperpalayam, Coimbatore",
      "pincode": "641009",
      "income_category": "46_iii"
    },
    {
      "temple_id": "TM009783",
      "temple_name": "Arulmigu Marriyamman Temple",
      "district": "Coimbatore District",
      "address": "Arulmigu Marriyamman Temple, Gandhipuram, Coimbatore",
      "pincode": "641012",
      "income_category": "46_iii"
    },
    {
      "temple_id": "TM009784",
      "temple_name": "Arulmigu Sangameswarar Temple",
      "district": "Coimbatore District",
      "address": "Arulmigu Sangameswarar Temple, Townhall, Coimbatore",
      "pincode": "641001",
      "income_category": "46_iii"
    },
    {
      "temple_id": "TM009785",
      "temple_name": "Arulmigu Subramaniya Swamy Temple",
      "district": "Coimbatore District",
      "address": "Arulmigu Subramaniya Swamy Temple, Karaikkal Ammaiyar Street, Pollachi",
      "pincode": "642001",
      "income_category": "46_iii"
    },
    {
      "temple_id": "TM009786",
      "temple_name": "Arulmigu Vasavi Kannika Parameswari Amman Temple",
      "district": "Coimbatore District",
      "address": "Arulmigu Vasavi Kannika Parameswari Amman Temple, Coimbatore",
      "pincode": "641001",
      "income_category": "46_iii"
    },
    {
      "temple_id": "TM009787",
      "temple_name": "Arulmigu Ponmalai Velayuthasamy Temple",
      "district": "Coimbatore District",
      "address": "Arulmigu Ponmalai Velayuthasamy Temple, Kinathukadavu",
      "pincode": "642109",
      "income_category": "46_iii"
    },
    {
      "temple_id": "TM009789",
      "temple_name": "Arulmigu Venugopala Krishna Swamy Temple",
      "district": "Coimbatore District",
      "address": "Arulmigu Venugopala Krishna Swamy Temple, Saleevn Street, Coimbatore",
      "pincode": "641001",
      "income_category": "46_iii"
    },
    {
      "temple_id": "TM009790",
      "temple_name": "Arulmigu Mariyamman Temple",
      "district": "Nilgiris District",
      "address": "Arulmigu Mariyamman Temple, Ooty",
      "pincode": "643001",
      "income_category": "46_iii"
    },
    {
      "temple_id": "TM009791",
      "temple_name": "Arulmigu Mariyamman Temple",
      "district": "Nilgiris District",
      "address": "Arulmigu Mariyamman Temple, Bokkapuram",
      "pincode": "643223",
      "income_category": "46_iii"
    },
    {
      "temple_id": "TM009792",
      "temple_name": "Arulmigu Anjaneyaswamy Temple",
      "district": "Coimbatore District",
      "address": "Arulmigu Anjaneyaswamy Temple, Palattrangarai, Pollachi",
      "pincode": "642134",
      "income_category": "46_iii"
    },
    {
      "temple_id": "TM009793",
      "temple_name": "Arulmigu Mariyamman",
      "district": "Coimbatore District",
      "address": "Arulmigu Mariyamman, Mahaliamman And Vinayakar Temple, Periyanaickenpalayam, Coimbatore",
      "pincode": "641019",
      "income_category": "46_iii"
    },
    {
      "temple_id": "TM009794",
      "temple_name": "Arulmigu Manthiragiri Velauythaswami Temple",
      "district": "Coimbatore District",
      "address": "Arulmigu Manthiragiri Velauythaswami Temple, Senjerimalai, Senjerimalai",
      "pincode": "641669",
      "income_category": "46_iii"
    },
    {
      "temple_id": "TM009796",
      "temple_name": "Arulmigu Sithi Vinayakar Temple",
      "district": "Coimbatore District",
      "address": "Arulmigu Sithi Vinayakar Temple, Gandhipuram, Coimbatore",
      "pincode": "641012",
      "income_category": "46_iii"
    },
    {
      "temple_id": "TM009799",
      "temple_name": "Arulmigu Venugopalasami Temple",
      "district": "Coimbatore District",
      "address": "Arulmigu Venugopalasami Temple, Ganapathy, Coimbatore",
      "pincode": "641006",
      "income_category": "46_iii"
    },
    {
      "temple_id": "TM009801",
      "temple_name": "Arulmigu Karanavinayakar Temple",
      "district": "Coimbatore District",
      "address": "Arulmigu Karanavinayakar Temple, Mathampalayam",
      "pincode": "641019",
      "income_category": "46_iii"
    },
    {
      "temple_id": "TM009802",
      "temple_name": "Arulmigu Kulanthai Velayudhasamy Temple",
      "district": "Coimbatore District",
      "address": "Arulmigu Kulanthai Velayudhasamy Temple, Kurunthamalai, Thekampatti",
      "pincode": "641104",
      "income_category": "46_iii"
    },
    {
      "temple_id": "TM009810",
      "temple_name": "Arulmigu Kooppidu Vinayagar Temple",
      "district": "Coimbatore District",
      "address": "Arulmigu Kooppidu Vinayagar Temple, Anupperpalayam, Coimbatore",
      "pincode": "641018",
      "income_category": "46_iii"
    },
    {
      "temple_id": "TM009813",
      "temple_name": "Arulmigu Gothandaramar Temple",
      "district": "Coimbatore District",
      "address": "Arulmigu Gothandaramar Temple, Town Hall, Coimbatore",
      "pincode": "641001",
      "income_category": "46_iii"
    },
    {
      "temple_id": "TM009827",
      "temple_name": "Arulmigu Kudaluruvi Mariamman Temple",
      "district": "Coimbatore District",
      "address": "Arulmigu Kudaluruvi Mariamman Temple, Katteri Devar Veethy, Sulur",
      "pincode": "641025",
      "income_category": "46_iii"
    },
    {
      "temple_id": "TM009828",
      "temple_name": "Arulmigu Karupparayar Mariamman Temple",
      "district": "Coimbatore District",
      "address": "Arulmigu Karupparayar Mariamman Temple, Vadavalli, Coimbatore",
      "pincode": "641041",
      "income_category": "46_iii"
    },
    {
      "temple_id": "TM009829",
      "temple_name": "Arulmigu Aravan Temple",
      "district": "Coimbatore District",
      "address": "Arulmigu Aravan Temple, Singanallur, Coimbatore",
      "pincode": "641005",
      "income_category": "46_iii"
    },
    {
      "temple_id": "TM009830",
      "temple_name": "Arulmigu Manneeswara Swamy Temple",
      "district": "Coimbatore District",
      "address": "Arulmigu Manneeswara Swamy Temple, Annur",
      "pincode": "641653",
      "income_category": "46_iii"
    },
    {
      "temple_id": "TM009832",
      "temple_name": "Arulmigu Deivakulam Kaliamman Temple",
      "district": "Coimbatore District",
      "address": "Arulmigu Deivakulam Kaliamman Temple, Vettaikaran Pudur",
      "pincode": "642129",
      "income_category": "46_iii"
    },
    {
      "temple_id": "TM009937",
      "temple_name": "Arulmigu Pudhuramalinga Sowdeswariamman Temple",
      "district": "Coimbatore District",
      "address": "Arulmigu Pudhuramalinga Sowdeswariamman Temple, Town Hall, Coimbatore",
      "pincode": "641001",
      "income_category": "46_iii"
    },
    {
      "temple_id": "TM010053",
      "temple_name": "Arulmigu Vazhai Thottathu Ayyan Temple",
      "district": "Tiruppur District",
      "address": "Arulmigu Vazhai Thottathu Ayyan Temple, V.Ayyampalayam, Samalapuram",
      "pincode": "641663",
      "income_category": "46_iii"
    },
    {
      "temple_id": "TM010054",
      "temple_name": "Arulmigu Subramaniyswamy Temple",
      "district": "Tiruppur District",
      "address": "Arulmigu Subramaniyswamy Temple, Kangeyam, Sivanmalai",
      "pincode": "638701",
      "income_category": "46_iii"
    },
    {
      "temple_id": "TM010055",
      "temple_name": "Arulmigu Avinashilingeswarar Temple",
      "district": "Tiruppur District",
      "address": "Arulmigu Avinashilingeswarar Temple, Avinashi",
      "pincode": "641654",
      "income_category": "46_iii"
    },
    {
      "temple_id": "TM010056",
      "temple_name": "Arulmigu Mariamman Vinayagar Temple",
      "district": "Tiruppur District",
      "address": "Arulmigu Mariamman Vinayagar Temple, Pichampalayam",
      "pincode": "641603",
      "income_category": "46_iii"
    },
    {
      "temple_id": "TM010057",
      "temple_name": "Arulmigu Amanalingeshwarar Temple",
      "district": "Tiruppur District",
      "address": "Arulmigu Amanalingeshwarar Temple, Thirumoorthy Nagar, Thirumoorthy Malai",
      "pincode": "642112",
      "income_category": "46_iii"
    },
    {
      "temple_id": "TM010058",
      "temple_name": "Arulmigu Visveawarar And Veeraragavaperumal Temple",
      "district": "Tiruppur District",
      "address": "Arulmigu Visveawarar And Veeraragavaperumal Temple, Eswaran Koil Street, Tiruppur",
      "pincode": "641601",
      "income_category": "46_iii"
    },
    {
      "temple_id": "TM010059",
      "temple_name": "Arulmigu Mariamman Temple",
      "district": "Tiruppur District",
      "address": "Arulmigu Mariamman Temple, Udumalpettai, Udumalpettai",
      "pincode": "642126",
      "income_category": "46_iii"
    },
    {
      "temple_id": "TM010060",
      "temple_name": "Arulmigu Veerakumara Swamy Temple",
      "district": "Tiruppur District",
      "address": "Arulmigu Veerakumara Swamy Temple, Vellakovil, Vellakovil",
      "pincode": "638111",
      "income_category": "46_iii"
    },
    {
      "temple_id": "TM010061",
      "temple_name": "Arulmigu Nattarayaswamy Temple",
      "district": "Tiruppur District",
      "address": "Arulmigu Nattarayaswamy Temple, Vellakovil, Kangayam",
      "pincode": "638111",
      "income_category": "46_iii"
    },
    {
      "temple_id": "TM010062",
      "temple_name": "Arulmigu Venkatesa Perumal Temple",
      "district": "Tiruppur District",
      "address": "Arulmigu Venkatesa Perumal Temple, Mondipalayam, Alathur Village, Alathur",
      "pincode": "641655",
      "income_category": "46_iii"
    },
    {
      "temple_id": "TM010063",
      "temple_name": "Arulmigu Kondathukaliamman And Uththamalingeswarar Adhikesavaperumal Temple",
      "district": "Tiruppur District",
      "address": "Arulmigu Kondathukaliamman And Uththamalingeswarar Adhikesavaperumal Temple, Perumanallur",
      "pincode": "641666",
      "income_category": "46_iii"
    },
    {
      "temple_id": "TM010064",
      "temple_name": "Arulmigu Thirumuruganathasamy Temple",
      "district": "Tiruppur District",
      "address": "Arulmigu Thirumuruganathasamy Temple, Thirumuruganpoondi, Tirupur",
      "pincode": "641652",
      "income_category": "46_iii"
    },
    {
      "temple_id": "TM010065",
      "temple_name": "Arulmigu Kariyakaaliamman Temple",
      "district": "Tiruppur District",
      "address": "Arulmigu Kariyakaaliamman Temple, Parenchervazhali, Kankeyam",
      "pincode": "638701",
      "income_category": "46_iii"
    },
    {
      "temple_id": "TM010066",
      "temple_name": "Arulmigu Mariamman Temple",
      "district": "Tiruppur District",
      "address": "Arulmigu Mariamman Temple, Karuvalur, Avinashi",
      "pincode": "641670",
      "income_category": "46_iii"
    },
    {
      "temple_id": "TM010067",
      "temple_name": "Arulmigu Lakshmi Narasimma Perumal Temple",
      "district": "Tiruppur District",
      "address": "Arulmigu Lakshmi Narasimma Perumal Temple, Thalakkarai, Avinashi",
      "pincode": "641655",
      "income_category": "46_iii"
    },
    {
      "temple_id": "TM010068",
      "temple_name": "Arulmigu Angalamman Temple",
      "district": "Tiruppur District",
      "address": "Arulmigu Angalamman Temple, Muthanampalayam, Tirupur",
      "pincode": "641606",
      "income_category": "46_iii"
    },
    {
      "temple_id": "TM010069",
      "temple_name": "Arulmigu Ramasamy Temple",
      "district": "Tiruppur District",
      "address": "Arulmigu Ramasamy Temple, Koilpalayam, Avinashipalayam",
      "pincode": "638660",
      "income_category": "46_iii"
    },
    {
      "temple_id": "TM010070",
      "temple_name": "Arulmigu Aalkontamal Temple",
      "district": "Tiruppur District",
      "address": "Arulmigu Aalkontamal Temple, Somavarapatti",
      "pincode": "642205",
      "income_category": "46_iii"
    },
    {
      "temple_id": "TM010071",
      "temple_name": "Arulmigu Selvakumaraswamy Temple",
      "district": "Tiruppur District",
      "address": "Arulmigu Selvakumaraswamy Temple, Chinnamuthur, Kankeyam",
      "pincode": "638701",
      "income_category": "46_iii"
    },
    {
      "temple_id": "TM010072",
      "temple_name": "Arulmigu Periyanayakiamman Temple",
      "district": "Tiruppur District",
      "address": "Arulmigu Periyanayakiamman Temple, -, Papini",
      "pincode": "641010",
      "income_category": "46_iii"
    },
    {
      "temple_id": "TM010073",
      "temple_name": "Arulmigu Bagavan Temple",
      "district": "Tiruppur District",
      "address": "Arulmigu Bagavan Temple, Kosavalasu, Ponnivadi",
      "pincode": "638673",
      "income_category": "46_iii"
    },
    {
      "temple_id": "TM010074",
      "temple_name": "Arulmigu Prashanna Vinayagar Temple",
      "district": "Tiruppur District",
      "address": "Arulmigu Prashanna Vinayagar Temple, Udumalpettai, Udumalpettai",
      "pincode": "642126",
      "income_category": "46_iii"
    },
    {
      "temple_id": "TM010078",
      "temple_name": "Arulmigu Kadu Humantharayar Temple",
      "district": "Tiruppur District",
      "address": "Arulmigu Kadu Humantharayar Temple, Anumanthapuram, Tirupur",
      "pincode": "638656",
      "income_category": "46_iii"
    },
    {
      "temple_id": "TM010079",
      "temple_name": "Arulmigu Vanjiyamman Temple",
      "district": "Tiruppur District",
      "address": "Arulmigu Vanjiyamman Temple, Mulanur, Moolanur/Dharapuram/Tirupur",
      "pincode": "638106",
      "income_category": "46_iii"
    },
    {
      "temple_id": "TM010082",
      "temple_name": "Arulmigu Athanuraman Kuppayannaswamy Temple",
      "district": "Tiruppur District",
      "address": "Arulmigu Athanuraman Kuppayannaswamy Temple, Kodumudi Road, Muthur",
      "pincode": "638105",
      "income_category": "46_iii"
    },
    {
      "temple_id": "TM010085",
      "temple_name": "Arulmigu Agasarayar Temple",
      "district": "Tiruppur District",
      "address": "Arulmigu Agasarayar Temple, Velayuthampalayam, Avinashi",
      "pincode": "641654",
      "income_category": "46_iii"
    },
    {
      "temple_id": "TM010086",
      "temple_name": "Arulmigu Vetrivelauthaswamy Temple",
      "district": "Tiruppur District",
      "address": "Arulmigu Vetrivelauthaswamy Temple, Uthukuli",
      "pincode": "638751",
      "income_category": "46_iii"
    },
    {
      "temple_id": "TM010091",
      "temple_name": "Arulmigu Bathrakaliyamman Temple",
      "district": "Tiruppur District",
      "address": "Arulmigu Bathrakaliyamman Temple, Velliyampathi, Uthukkuli",
      "pincode": "638103",
      "income_category": "46_iii"
    },
    {
      "temple_id": "TM010098",
      "temple_name": "Arulmigu Azhagunachiamman Temple",
      "district": "Tiruppur District",
      "address": "Arulmigu Azhagunachiamman Temple, Madathukulam",
      "pincode": "642203",
      "income_category": "46_iii"
    },
    {
      "temple_id": "TM010100",
      "temple_name": "Arulmigu Visuveshwarasamy Visalakshi Amman Subramaniyasamy Temple",
      "district": "Tiruppur District",
      "address": "Arulmigu Visuveshwarasamy Visalakshi Amman Subramaniyasamy Temple, Nallur",
      "pincode": "641606",
      "income_category": "46_iii"
    },
    {
      "temple_id": "TM010114",
      "temple_name": "Arulmigu Agathiswarar Temple",
      "district": "Tiruppur District",
      "address": "Arulmigu Agathiswarar Temple, Near Amaravathi River, Dharapuram",
      "pincode": "638656",
      "income_category": "46_iii"
    },
    {
      "temple_id": "TM010142",
      "temple_name": "Arulmigu Alagunachiamman Temple",
      "district": "Tiruppur District",
      "address": "Arulmigu Alagunachiamman Temple, Valliarachal, Kankeyam",
      "pincode": "638105",
      "income_category": "46_iii"
    },
    {
      "temple_id": "TM010224",
      "temple_name": "Arulmigu Sangameswarar Temple",
      "district": "Erode District",
      "address": "Arulmigu Sangameswarar Temple, Bhavani, Erode",
      "pincode": "638301",
      "income_category": "46_iii"
    },
    {
      "temple_id": "TM010228",
      "temple_name": "Arulmigu Subramaniyaswamy Temple",
      "district": "Erode District",
      "address": "Arulmigu Subramaniyaswamy Temple, Malaikoil, Chennimalai",
      "pincode": "638051",
      "income_category": "46_iii"
    },
    {
      "temple_id": "TM010229",
      "temple_name": "Arulmigu Kondathu Kaliamman Temple",
      "district": "Erode District",
      "address": "Arulmigu Kondathu Kaliamman Temple, Pariyur, Gobichettipalayam",
      "pincode": "638476",
      "income_category": "46_iii"
    },
    {
      "temple_id": "TM010233",
      "temple_name": "Arulmigu Periyamariamman Vagaiyara Temple",
      "district": "Erode District",
      "address": "Arulmigu Periyamariamman Vagaiyara Temple, P.S.Park, Erode",
      "pincode": "638001",
      "income_category": "46_iii"
    },
    {
      "temple_id": "TM010234",
      "temple_name": "Arulmigu Velayuthasamy Temple",
      "district": "Erode District",
      "address": "Arulmigu Velayuthasamy Temple, Thindal",
      "pincode": "638012",
      "income_category": "46_iii"
    },
    {
      "temple_id": "TM010235",
      "temple_name": "Arulmigu Magudeshwarar And Veeranarayana Perumal Temple",
      "district": "Erode District",
      "address": "Arulmigu Magudeshwarar And Veeranarayana Perumal Temple, Kodumudi",
      "pincode": "638151",
      "income_category": "46_iii"
    },
    {
      "temple_id": "TM010236",
      "temple_name": "Arulmigu Varatharaja Perumal Vagaiyara Temple",
      "district": "Erode District",
      "address": "Arulmigu Varatharaja Perumal Vagaiyara Temple, Vengambur",
      "pincode": "638152",
      "income_category": "46_iii"
    },
    {
      "temple_id": "TM010237",
      "temple_name": "Arulmigu Thambikalai Ayyan Swamy Temple",
      "district": "Erode District",
      "address": "Arulmigu Thambikalai Ayyan Swamy Temple, Thangamedu, Thangamedu",
      "pincode": "638116",
      "income_category": "46_iii"
    },
    {
      "temple_id": "TM010238",
      "temple_name": "Arulmigu Aruthrakabaleeswarar Vagaiyara Temple",
      "district": "Erode District",
      "address": "Arulmigu Aruthrakabaleeswarar Vagaiyara Temple, Erode Nagar, Erode",
      "pincode": "638001",
      "income_category": "46_iii"
    },
    {
      "temple_id": "TM010239",
      "temple_name": "Arulmigu Kongalamman Temple",
      "district": "Erode District",
      "address": "Arulmigu Kongalamman Temple, Manikoondu, Erode",
      "pincode": "638001",
      "income_category": "46_iii"
    },
    {
      "temple_id": "TM010240",
      "temple_name": "Arulmigu Selleeswarar Vagayara Temple",
      "district": "Erode District",
      "address": "Arulmigu Selleeswarar Vagayara Temple, Anthiyur",
      "pincode": "638501",
      "income_category": "46_iii"
    },
    {
      "temple_id": "TM010242",
      "temple_name": "Arulmigu Selliyanidyamman Temple",
      "district": "Erode District",
      "address": "Arulmigu Selliyanidyamman Temple, Bhavani",
      "pincode": "638301",
      "income_category": "46_iii"
    },
    {
      "temple_id": "TM010243",
      "temple_name": "Arulmigu Mallikarjunasamy Temple",
      "district": "Erode District",
      "address": "Arulmigu Mallikarjunasamy Temple, -, Kongakalli",
      "pincode": "638461",
      "income_category": "46_iii"
    },
    {
      "temple_id": "TM010244",
      "temple_name": "Arulmigu Mahaveera Anjaneyar Temple",
      "district": "Erode District",
      "address": "Arulmigu Mahaveera Anjaneyar Temple, Erode Nagar, Erode",
      "pincode": "638001",
      "income_category": "46_iii"
    },
    {
      "temple_id": "TM010245",
      "temple_name": "Arulmigu Bannari Mariamman Temple",
      "district": "Erode District",
      "address": "Arulmigu Bannari Mariamman Temple, Bannari",
      "pincode": "638401",
      "income_category": "46_iii"
    },
    {
      "temple_id": "TM010246",
      "temple_name": "Arulmigu Andavarkula Ayyan Temple",
      "district": "Erode District",
      "address": "Arulmigu Andavarkula Ayyan Temple, Pudusooripalayam, Gobichettipalayam",
      "pincode": "638458",
      "income_category": "46_iii"
    },
    {
      "temple_id": "TM010247",
      "temple_name": "Arulmigu Subramaniyaswamy Temple",
      "district": "Erode District",
      "address": "Arulmigu Subramaniyaswamy Temple, Modachur, Gobichettaipalayam",
      "pincode": "638476",
      "income_category": "46_iii"
    },
    {
      "temple_id": "TM010248",
      "temple_name": "Arulmigu Venugopala Swamy Vakayara Temple",
      "district": "Erode District",
      "address": "Arulmigu Venugopala Swamy Vakayara Temple, Sathyamangalam, Sathyamangalam",
      "pincode": "638401",
      "income_category": "46_iii"
    },
    {
      "temple_id": "TM010249",
      "temple_name": "Arulmigu Ponkaliamman Temple",
      "district": "Erode District",
      "address": "Arulmigu Ponkaliamman Temple, Thalaiyanallur, Kodumudi",
      "pincode": "638109",
      "income_category": "46_iii"
    },
    {
      "temple_id": "TM010250",
      "temple_name": "Arulmigu Thanthondriamman Temple",
      "district": "Erode District",
      "address": "Arulmigu Thanthondriamman Temple, Modachur, Gobichettaipalayam",
      "pincode": "638476",
      "income_category": "46_iii"
    },
    {
      "temple_id": "TM010252",
      "temple_name": "Arulmigu Muthukumarasamy Temple",
      "district": "Erode District",
      "address": "Arulmigu Muthukumarasamy Temple, Pavalamalai, Gobichettaipalayam",
      "pincode": "638476",
      "income_category": "46_iii"
    },
    {
      "temple_id": "TM010259",
      "temple_name": "Arulmigu Padrakalliamman Temple",
      "district": "Erode District",
      "address": "Arulmigu Padrakalliamman Temple, Kallukadimedu, Kollampalayam",
      "pincode": "638002",
      "income_category": "46_iii"
    },
    {
      "temple_id": "TM010261",
      "temple_name": "Arulmigu Gurunathaswamy Temple",
      "district": "Erode District",
      "address": "Arulmigu Gurunathaswamy Temple, Puthupalayam, Anthiyur",
      "pincode": "638501",
      "income_category": "46_iii"
    },
    {
      "temple_id": "TM010271",
      "temple_name": "Arulmigu Mariyamman Temple",
      "district": "Erode District",
      "address": "Arulmigu Mariyamman Temple, Surampatti, Erode",
      "pincode": "638009",
      "income_category": "46_iii"
    },
    {
      "temple_id": "TM010272",
      "temple_name": "Arulmigu Nageshwarar Kulavilakkamman Temple",
      "district": "Erode District",
      "address": "Arulmigu Nageshwarar Kulavilakkamman Temple, Nanjaikalamangalam, Modakurichi",
      "pincode": "638153",
      "income_category": "46_iii"
    },
    {
      "temple_id": "TM010273",
      "temple_name": "Arulmigu Soleeswarar Temple",
      "district": "Erode District",
      "address": "Arulmigu Soleeswarar Temple, Perundurai, Perundurai",
      "pincode": "638052",
      "income_category": "46_iii"
    },
    {
      "temple_id": "TM010275",
      "temple_name": "Arulmigu Sellandiamman Temple",
      "district": "Erode District",
      "address": "Arulmigu Sellandiamman Temple, Perundurai, Perundurai",
      "pincode": "638052",
      "income_category": "46_iii"
    },
    {
      "temple_id": "TM011372",
      "temple_name": "Arulmigu Kamatchiamman Temple",
      "district": "Coimbatore District",
      "address": "Arulmigu Kamatchiamman Temple, R.S.Puram",
      "pincode": "641002",
      "income_category": "46_iii"
    },
    {
      "temple_id": "TM012880",
      "temple_name": "Arulmigu Sellandiamman and Mariyamman Temple",
      "district": "Tiruppur District",
      "address": "Arulmigu Sellandiamman and Mariyamman Temple, Chettipalayam",
      "pincode": "641603",
      "income_category": "46_iii"
    },
    {
      "temple_id": "TM012894",
      "temple_name": "Arulmigu Varatharaja Perumal Temple",
      "district": "Tiruppur District",
      "address": "Arulmigu Varatharaja Perumal Temple, Nariyampalli, Karuvalur",
      "pincode": "641670",
      "income_category": "46_iii"
    },
    {
      "temple_id": "TM013967",
      "temple_name": "Thanjavur Palace Devasthanam",
      "district": "Thanjavur District",
      "address": "Thanjavur Palace Devasthanam, Thanjavur",
      "pincode": "613009",
      "income_category": "46_iii"
    },
    {
      "temple_id": "TM014056",
      "temple_name": "Arulmigu Mullaivananatha Swamy Temple",
      "district": "Thanjavur District",
      "address": "Arulmigu Mullaivananatha Swamy Temple, Thirukkarugavur",
      "pincode": "614302",
      "income_category": "46_iii"
    },
    {
      "temple_id": "TM014059",
      "temple_name": "Arulmigu Mathiyapurieswarar Temple",
      "district": "Thanjavur District",
      "address": "Arulmigu Mathiyapurieswarar Temple, Parakkalakkottai",
      "pincode": "614613",
      "income_category": "46_iii"
    },
    {
      "temple_id": "TM014062",
      "temple_name": "Arulmigu Neelakanda Pillaiyar Temple",
      "district": "Thanjavur District",
      "address": "Arulmigu Neelakanda Pillaiyar Temple, Endhal",
      "pincode": "614804",
      "income_category": "46_iii"
    },
    {
      "temple_id": "TM014086",
      "temple_name": "Arulmigu Bangaru Kamachiamman Temple",
      "district": "Thanjavur District",
      "address": "Arulmigu Bangaru Kamachiamman Temple, Thanjavur",
      "pincode": "613009",
      "income_category": "46_iii"
    },
    {
      "temple_id": "TM014091",
      "temple_name": "Arulmigu Paramanatha Ayyanar Temple",
      "district": "Thanjavur District",
      "address": "Arulmigu Paramanatha Ayyanar Temple, Soorakottai",
      "pincode": "614019",
      "income_category": "46_iii"
    },
    {
      "temple_id": "TM014093",
      "temple_name": "Arulmigu Vasisteshwarar Temple",
      "district": "Thanjavur District",
      "address": "Arulmigu Vasisteshwarar Temple, Thittai",
      "pincode": "613003",
      "income_category": "46_iii"
    },
    {
      "temple_id": "TM014103",
      "temple_name": "Arulmigu Subramaniya Swamy Temple",
      "district": "Thanjavur District",
      "address": "Arulmigu Subramaniya Swamy Temple, Near Rly Station, Pookaratheru",
      "pincode": "613001",
      "income_category": "46_iii"
    },
    {
      "temple_id": "TM014113",
      "temple_name": "Arulmigu Nadiyamman Temple",
      "district": "Thanjavur District",
      "address": "Arulmigu Nadiyamman Temple, Pattukkottai",
      "pincode": "614602",
      "income_category": "46_iii"
    },
    {
      "temple_id": "TM014114",
      "temple_name": "Arulmigu Viswanathaswamy Temple",
      "district": "Thanjavur District",
      "address": "Arulmigu Viswanathaswamy Temple, Kasagkulam Melkarai, Pattukkottai",
      "pincode": "614601",
      "income_category": "46_iii"
    },
    {
      "temple_id": "TM014135",
      "temple_name": "Arulmigu Durgaiamman Temple",
      "district": "Thanjavur District",
      "address": "Arulmigu Durgaiamman Temple, Palathali",
      "pincode": "614602",
      "income_category": "46_iii"
    },
    {
      "temple_id": "TM014140",
      "temple_name": "Arulmigu Muthumariamman Temple",
      "district": "Thanjavur District",
      "address": "Arulmigu Muthumariamman Temple, Karambayam",
      "pincode": "614626",
      "income_category": "46_iii"
    },
    {
      "temple_id": "TM014150",
      "temple_name": "Arulmigu Kailasanathaswamy Temple",
      "district": "Thanjavur District",
      "address": "Arulmigu Kailasanathaswamy Temple, Thingalur",
      "pincode": "613204",
      "income_category": "46_iii"
    },
    {
      "temple_id": "TM014230",
      "temple_name": "Arulmigu Venkatesa Perumal And Kailasanatha Swamy Temple",
      "district": "Thanjavur District",
      "address": "Arulmigu Venkatesa Perumal And Kailasanatha Swamy Temple, Agraharam",
      "pincode": "613101",
      "income_category": "46_iii"
    },
    {
      "temple_id": "TM014252",
      "temple_name": "Arulmigu Abathsagayeswaraswamy Temple",
      "district": "Thiruvarur District",
      "address": "Arulmigu Abathsagayeswaraswamy Temple, Alangudi",
      "pincode": "612801",
      "income_category": "46_iii"
    },
    {
      "temple_id": "TM014267",
      "temple_name": "Arulmigu Rajagopalaswamy Temple",
      "district": "Thiruvarur District",
      "address": "Arulmigu Rajagopalaswamy Temple, Mannargudi",
      "pincode": "614001",
      "income_category": "46_iii"
    },
    {
      "temple_id": "TM014280",
      "temple_name": "Arulmigu Mahamariamman Temple",
      "district": "Thiruvarur District",
      "address": "Arulmigu Mahamariamman Temple, Valangaiman",
      "pincode": "612804",
      "income_category": "46_iii"
    },
    {
      "temple_id": "TM014321",
      "temple_name": "Arulmigu Agneeswarar Temple",
      "district": "Thiruvarur District",
      "address": "Arulmigu Agneeswarar Temple, Thirukkollikadu",
      "pincode": "614710",
      "income_category": "46_iii"
    },
    {
      "temple_id": "TM014322",
      "temple_name": "Arulmigu Mehanatha Swami Temple",
      "district": "Thiruvarur District",
      "address": "Arulmigu Mehanatha Swami Temple, Peralam",
      "pincode": "609504",
      "income_category": "46_iii"
    },
    {
      "temple_id": "TM014329",
      "temple_name": "Arulmigu Bavaoushadeeswarar Temple",
      "district": "Thiruvarur District",
      "address": "Arulmigu Bavaoushadeeswarar Temple, Thiruthuraipoondi",
      "pincode": "614713",
      "income_category": "46_iii"
    },
    {
      "temple_id": "TM014385",
      "temple_name": "Arulmigu Anantha Vinayagar Temple",
      "district": "Thiruvarur District",
      "address": "Arulmigu Anantha Vinayagar Temple, Mannargudi",
      "pincode": "614001",
      "income_category": "46_iii"
    },
    {
      "temple_id": "TM014389",
      "temple_name": "Arulmigu Sheshapureeswarar Temple",
      "district": "Thiruvarur District",
      "address": "Arulmigu Sheshapureeswarar Temple, Thirupamburam",
      "pincode": "612203",
      "income_category": "46_iii"
    },
    {
      "temple_id": "TM014443",
      "temple_name": "Arulmigu Manthirapureeshwarar Temple",
      "district": "Thiruvarur District",
      "address": "Arulmigu Manthirapureeshwarar Temple, Koviloor",
      "pincode": "614704",
      "income_category": "46_iii"
    },
    {
      "temple_id": "TM014451",
      "temple_name": "Arulmigu Varadharaja Perumal Temple",
      "district": "Thiruvarur District",
      "address": "Arulmigu Varadharaja Perumal Temple, Thiruthuripoondi",
      "pincode": "614713",
      "income_category": "46_iii"
    },
    {
      "temple_id": "TM014571",
      "temple_name": "Arulmigu Navaneetheswara Swamy Temple",
      "district": "Nagapattinam District",
      "address": "Arulmigu Navaneetheswara Swamy Temple, Sikkal, Sikkal",
      "pincode": "611108",
      "income_category": "46_iii"
    },
    {
      "temple_id": "TM014581",
      "temple_name": "Arulmigu Subramaniya Swamy Temple",
      "district": "Nagapattinam District",
      "address": "Arulmigu Subramaniya Swamy Temple, Ettukkudi, Ettukkudi",
      "pincode": "610204",
      "income_category": "46_iii"
    },
    {
      "temple_id": "TM014584",
      "temple_name": "Arulmigu Thiyagaraja Swamy Temple",
      "district": "Nagapattinam District",
      "address": "Arulmigu Thiyagaraja Swamy Temple, Thiruvaimoor, Thiruvaimoor",
      "pincode": "610204",
      "income_category": "46_iii"
    },
    {
      "temple_id": "TM014588",
      "temple_name": "Arulmigu Agneeshwararswamy Temple",
      "district": "Nagapattinam District",
      "address": "Arulmigu Agneeshwararswamy Temple, Thiruppugalur, Thirupugalur",
      "pincode": "609704",
      "income_category": "46_iii"
    },
    {
      "temple_id": "TM014589",
      "temple_name": "Arulmigu Vedaranyeswaraswamy Temple",
      "district": "Nagapattinam District",
      "address": "Arulmigu Vedaranyeswaraswamy Temple, Vedaranyam, Vedaraniyam",
      "pincode": "614810",
      "income_category": "46_iii"
    },
    {
      "temple_id": "TM014604",
      "temple_name": "Arulmigu Sounthara Raja Perumal Temple",
      "district": "Nagapattinam District",
      "address": "Arulmigu Sounthara Raja Perumal Temple, Nagapattinam Town, Nagapattinam",
      "pincode": "611001",
      "income_category": "46_iii"
    },
    {
      "temple_id": "TM014606",
      "temple_name": "Arulmigu Naduvatheeshwarar Temple",
      "district": "Nagapattinam District",
      "address": "Arulmigu Naduvatheeshwarar Temple, Nagapattinam",
      "pincode": "611001",
      "income_category": "46_iii"
    },
    {
      "temple_id": "TM014608",
      "temple_name": "Arulmigu Kayarohanaswamy Udanurai Neelayathatchiamman Temple",
      "district": "Nagapattinam District",
      "address": "Arulmigu Kayarohanaswamy Udanurai Neelayathatchiamman Temple, Nagapattinam, Nagapattinam",
      "pincode": "611001",
      "income_category": "46_iii"
    },
    {
      "temple_id": "TM014615",
      "temple_name": "Arulmigu Azhagiyanathaswamy Temple",
      "district": "Nagapattinam District",
      "address": "Arulmigu Azhagiyanathaswamy Temple, Nagapattinam",
      "pincode": "611001",
      "income_category": "46_iii"
    },
    {
      "temple_id": "TM014622",
      "temple_name": "Arulmigu Atchayalinga Swamy Temple",
      "district": "Nagapattinam District",
      "address": "Arulmigu Atchayalinga Swamy Temple, Kilvelur, Kilvelur",
      "pincode": "611104",
      "income_category": "46_iii"
    },
    {
      "temple_id": "TM014635",
      "temple_name": "Arulmigu Maha Sharaswathi Amman Temple",
      "district": "Thiruvarur District",
      "address": "Arulmigu Maha Sharaswathi Amman Temple, Koothanoor",
      "pincode": "609503",
      "income_category": "46_iii"
    },
    {
      "temple_id": "TM014642",
      "temple_name": "Arulmigu Sowriraja Perumal Temple",
      "district": "Nagapattinam District",
      "address": "Arulmigu Sowriraja Perumal Temple, Thirukkannapuram, Thirukannapuram",
      "pincode": "609704",
      "income_category": "46_iii"
    },
    {
      "temple_id": "TM014688",
      "temple_name": "Arulmigu Bathrakaliyamman Temple",
      "district": "Nagapattinam District",
      "address": "Arulmigu Bathrakaliyamman Temple, Kallimedu, Kallimedu",
      "pincode": "614809",
      "income_category": "46_iii"
    },
    {
      "temple_id": "TM014691",
      "temple_name": "Arulmigu Uthirapatheeshwararswamy Temple",
      "district": "Nagapattinam District",
      "address": "Arulmigu Uthirapatheeshwararswamy Temple, Thiruchenkattankudi, Thiruchenkattankudi",
      "pincode": "609704",
      "income_category": "46_iii"
    },
    {
      "temple_id": "TM014707",
      "temple_name": "Arulmigu Bairavanathaswamy Temple",
      "district": "Nagapattinam District",
      "address": "Arulmigu Bairavanathaswamy Temple, Thagattur, Thagattur",
      "pincode": "614714",
      "income_category": "46_iii"
    },
    {
      "temple_id": "TM014723",
      "temple_name": "Arulmigu Neallukkadai Mariyamman Temple",
      "district": "Nagapattinam District",
      "address": "Arulmigu Neallukkadai Mariyamman Temple, Nagapattinam Town, Nagappattinam",
      "pincode": "611001",
      "income_category": "46_iii"
    },
    {
      "temple_id": "TM017995",
      "temple_name": "Arulmigu Venkatachalapathi Swamy Temple",
      "district": "Thanjavur District",
      "address": "Arulmigu Venkatachalapathi Swamy Temple, Oppiliappan Koil, Thirunageswaram",
      "pincode": "612204",
      "income_category": "46_iii"
    },
    {
      "temple_id": "TM017999",
      "temple_name": "Arulmigu Naganatha Swamy Temple",
      "district": "Thanjavur District",
      "address": "Arulmigu Naganatha Swamy Temple, Thirunageswaram",
      "pincode": "612204",
      "income_category": "46_iii"
    },
    {
      "temple_id": "TM018002",
      "temple_name": "Arulmigu Swaminatha Swamy Temple",
      "district": "Thanjavur District",
      "address": "Arulmigu Swaminatha Swamy Temple, Swamimalai, Kumbakonam",
      "pincode": "612302",
      "income_category": "46_iii"
    },
    {
      "temple_id": "TM018013",
      "temple_name": "Arulmigu Dhenupureeswarar Temple",
      "district": "Thanjavur District",
      "address": "Arulmigu Dhenupureeswarar Temple, Patteswaram, Patteeswaram",
      "pincode": "612703",
      "income_category": "46_iii"
    },
    {
      "temple_id": "TM018014",
      "temple_name": "Arulmigu Srinivasa Perumal Temple",
      "district": "Thanjavur District",
      "address": "Arulmigu Srinivasa Perumal Temple, Nachiyarkoil, Nachiyarkoil",
      "pincode": "612602",
      "income_category": "46_iii"
    },
    {
      "temple_id": "TM018015",
      "temple_name": "Arulmigu Magalingaswamy Temple",
      "district": "Thanjavur District",
      "address": "Arulmigu Magalingaswamy Temple, Thiruvidamaruthur",
      "pincode": "612104",
      "income_category": "46_iii"
    },
    {
      "temple_id": "TM018016",
      "temple_name": "Arulmigu Sivasuriyaperumantemple",
      "district": "Thanjavur District",
      "address": "Arulmigu Sivasuriyaperumantemple, Sooriyanarkoil",
      "pincode": "612102",
      "income_category": "46_iii"
    },
    {
      "temple_id": "TM018017",
      "temple_name": "Arulmigu Chakkarapaniswamytemple",
      "district": "Thanjavur District",
      "address": "Arulmigu Chakkarapaniswamytemple, Kumbakonam",
      "pincode": "612001",
      "income_category": "46_iii"
    },
    {
      "temple_id": "TM018018",
      "temple_name": "Arulmigu Sarangapaniswamy Temple",
      "district": "Thanjavur District",
      "address": "Arulmigu Sarangapaniswamy Temple, Kumbakonam, Kumbakonam",
      "pincode": "612001",
      "income_category": "46_iii"
    },
    {
      "temple_id": "TM018019",
      "temple_name": "Arulmigu Aadhikumbeswaraswamy Temple",
      "district": "Thanjavur District",
      "address": "Arulmigu Aadhikumbeswaraswamy Temple, Kumbakonam, Kumbakonam",
      "pincode": "612001",
      "income_category": "46_iii"
    },
    {
      "temple_id": "TM018022",
      "temple_name": "Arulmigu Saranathaperumal Temple",
      "district": "Thanjavur District",
      "address": "Arulmigu Saranathaperumal Temple, Thirucherrai",
      "pincode": "612605",
      "income_category": "46_iii"
    },
    {
      "temple_id": "TM018024",
      "temple_name": "Shri Kaasi Mutt (Samaya Arakkattalai)",
      "district": "Thanjavur District",
      "address": "Shri Kaasi Mutt (Samaya Arakkattalai), Thirupanandal",
      "pincode": "612504",
      "income_category": "46_iii"
    },
    {
      "temple_id": "TM018026",
      "temple_name": "Arulmigu Uthvaaganathaswamy Temple",
      "district": "Mayiladuthurai District",
      "address": "Arulmigu Uthvaaganathaswamy Temple, Thirumanancherri",
      "pincode": "609801",
      "income_category": "46_iii"
    },
    {
      "temple_id": "TM018027",
      "temple_name": "Arulmigu Suvedaranyeswaraswamy Temple",
      "district": "Mayiladuthurai District",
      "address": "Arulmigu Suvedaranyeswaraswamy Temple, Thriuvengadu",
      "pincode": "609114",
      "income_category": "46_iii"
    },
    {
      "temple_id": "TM018028",
      "temple_name": "Arulmigu Rajagopalaswamy Temple",
      "district": "Mayiladuthurai District",
      "address": "Arulmigu Rajagopalaswamy Temple, Anathamangalam, Kazhiyappanallur",
      "pincode": "609307",
      "income_category": "46_iii"
    },
    {
      "temple_id": "TM018032",
      "temple_name": "Arulmigu Naaganathaswamy Temple",
      "district": "Mayiladuthurai District",
      "address": "Arulmigu Naaganathaswamy Temple, Keezhaperumpallam",
      "pincode": "609105",
      "income_category": "46_iii"
    },
    {
      "temple_id": "TM018033",
      "temple_name": "Arulmigu Prasannamariyamman Temple",
      "district": "Mayiladuthurai District",
      "address": "Arulmigu Prasannamariyamman Temple, Mayiladuthurai",
      "pincode": "609001",
      "income_category": "46_iii"
    },
    {
      "temple_id": "TM018034",
      "temple_name": "Arulmigu Maayurnathaswamytemple",
      "district": "Mayiladuthurai District",
      "address": "Arulmigu Maayurnathaswamytemple, Mayiladuthurai",
      "pincode": "609001",
      "income_category": "46_iii"
    },
    {
      "temple_id": "TM018037",
      "temple_name": "Arulmigu Kampagareswaraswamy Temple",
      "district": "Thanjavur District",
      "address": "Arulmigu Kampagareswaraswamy Temple, Thirubhuvanam",
      "pincode": "612103",
      "income_category": "46_iii"
    },
    {
      "temple_id": "TM018038",
      "temple_name": "Arulmigu Prananathaswamy Temple",
      "district": "Thanjavur District",
      "address": "Arulmigu Prananathaswamy Temple, Thirumangalakudi",
      "pincode": "612102",
      "income_category": "46_iii"
    },
    {
      "temple_id": "TM018039",
      "temple_name": "Arulmigu Akneeswarar Temple",
      "district": "Thanjavur District",
      "address": "Arulmigu Akneeswarar Temple, Kanjanoor, Kanjanoor",
      "pincode": "609804",
      "income_category": "46_iii"
    },
    {
      "temple_id": "TM018040",
      "temple_name": "Arulmigu Aagasamaariyamman Temple",
      "district": "Thanjavur District",
      "address": "Arulmigu Aagasamaariyamman Temple, Nachiyarkoil",
      "pincode": "612602",
      "income_category": "46_iii"
    },
    {
      "temple_id": "TM018041",
      "temple_name": "Arulmigu Parimalarenganathar Temple",
      "district": "Mayiladuthurai District",
      "address": "Arulmigu Parimalarenganathar Temple, Thiruinthalur, Mayiladuthurai",
      "pincode": "609001",
      "income_category": "46_iii"
    },
    {
      "temple_id": "TM018043",
      "temple_name": "Arulmigu Pasupatheeswara Swamy Temple",
      "district": "Thanjavur District",
      "address": "Arulmigu Pasupatheeswara Swamy Temple, Pandhanallur",
      "pincode": "609807",
      "income_category": "46_iii"
    },
    {
      "temple_id": "TM018045",
      "temple_name": "Arulmigu Parasunathaswamy Temple",
      "district": "Thanjavur District",
      "address": "Arulmigu Parasunathaswamy Temple, Muzhaiyur, Muzhaiyur",
      "pincode": "612703",
      "income_category": "46_iii"
    },
    {
      "temple_id": "TM018050",
      "temple_name": "Arulmigu Karumpayiram Konda Vinayagar Temple",
      "district": "Thanjavur District",
      "address": "Arulmigu Karumpayiram Konda Vinayagar Temple, Kumbakonam",
      "pincode": "612001",
      "income_category": "46_iii"
    },
    {
      "temple_id": "TM018054",
      "temple_name": "Arulmigu Kasiviswanathar Temple",
      "district": "Thanjavur District",
      "address": "Arulmigu Kasiviswanathar Temple, Kumbakonam, Kumbakonam",
      "pincode": "612001",
      "income_category": "46_iii"
    },
    {
      "temple_id": "TM018059",
      "temple_name": "Arulmigu Mariyamman Temple",
      "district": "Mayiladuthurai District",
      "address": "Arulmigu Mariyamman Temple, Ozhugaimangalam, Erukkatancherri",
      "pincode": "609307",
      "income_category": "46_iii"
    },
    {
      "temple_id": "TM018061",
      "temple_name": "Arulmigu Subramaniya Swamy Temple",
      "district": "Mayiladuthurai District",
      "address": "Arulmigu Subramaniya Swamy Temple, Thiruvidaikazhi",
      "pincode": "609310",
      "income_category": "46_iii"
    },
    {
      "temple_id": "TM018082",
      "temple_name": "Arulmigu Margasagayaswamy Temple",
      "district": "Mayiladuthurai District",
      "address": "Arulmigu Margasagayaswamy Temple, Moovalur, Mayiladuthurai",
      "pincode": "609806",
      "income_category": "46_iii"
    },
    {
      "temple_id": "TM020341",
      "temple_name": "Arulmigu Chandramouleeswarar Temple",
      "district": "Viluppuram District",
      "address": "Arulmigu Chandramouleeswarar Temple, Thiruvakkarai",
      "pincode": "604304",
      "income_category": "46_iii"
    },
    {
      "temple_id": "TM020342",
      "temple_name": "Arulmigu Angalamman Temple",
      "district": "Viluppuram District",
      "address": "Arulmigu Angalamman Temple, Melmalaiyanur",
      "pincode": "604204",
      "income_category": "46_iii"
    },
    {
      "temple_id": "TM020343",
      "temple_name": "Arulmigu Arunchalaeswarar Temple",
      "district": "Tiruvannamalai District",
      "address": "Arulmigu Arunchalaeswarar Temple, Tiruvannamalai",
      "pincode": "606601",
      "income_category": "46_iii"
    },
    {
      "temple_id": "TM020363",
      "temple_name": "Arulmigu Lakshminarasimar Temple",
      "district": "Viluppuram District",
      "address": "Arulmigu Lakshminarasimar Temple, Puvarasankuppam",
      "pincode": "605105",
      "income_category": "46_iii"
    },
    {
      "temple_id": "TM020364",
      "temple_name": "Arulmigu Thiru Arutprakasa Vallalar Dheiva Nilayam",
      "district": "Cuddalore District",
      "address": "Arulmigu Thiru Arutprakasa Vallalar Dheiva Nilayam, Parvathipuram, Vadalur",
      "pincode": "607303",
      "income_category": "46_iii"
    },
    {
      "temple_id": "TM020365",
      "temple_name": "Arulmigu Kolanciyappar Temple",
      "district": "Cuddalore District",
      "address": "Arulmigu Kolanciyappar Temple, Manavalanallur",
      "pincode": "606003",
      "income_category": "46_iii"
    },
    {
      "temple_id": "TM020366",
      "temple_name": "Arulmigu Padaleeswarar Temple",
      "district": "Cuddalore District",
      "address": "Arulmigu Padaleeswarar Temple, Thirupathiripuliyur, Cuddalore",
      "pincode": "607002",
      "income_category": "46_iii"
    },
    {
      "temple_id": "TM020367",
      "temple_name": "Arulmigu Devanathaswamy Temple",
      "district": "Cuddalore District",
      "address": "Arulmigu Devanathaswamy Temple, Thiruvandhipuram, Cuddalore",
      "pincode": "607401",
      "income_category": "46_iii"
    },
    {
      "temple_id": "TM020368",
      "temple_name": "Arulmigu Virudhagireswarar Temple",
      "district": "Cuddalore District",
      "address": "Arulmigu Virudhagireswarar Temple, Vriddhachalam",
      "pincode": "606001",
      "income_category": "46_iii"
    },
    {
      "temple_id": "TM020370",
      "temple_name": "Arulmigu Neyveli Group Temple",
      "district": "Cuddalore District",
      "address": "Arulmigu Neyveli Group Temple, Veludaiyan Pattu, Neyveli",
      "pincode": "607801",
      "income_category": "46_iii"
    },
    {
      "temple_id": "TM020374",
      "temple_name": "Arulmigu Renugambalamman Temple",
      "district": "Tiruvannamalai District",
      "address": "Arulmigu Renugambalamman Temple, Near Panchayat Office, A.K.Padavedu",
      "pincode": "606905",
      "income_category": "46_iii"
    },
    {
      "temple_id": "TM020375",
      "temple_name": "Arulmigu Mariyamman Temple",
      "district": "Tiruvannamalai District",
      "address": "Arulmigu Mariyamman Temple, Puthur Chengam",
      "pincode": "606705",
      "income_category": "46_iii"
    },
    {
      "temple_id": "TM020376",
      "temple_name": "Arulmigu Lakshmi Narasimma Swamy Temple",
      "district": "Tiruvannamalai District",
      "address": "Arulmigu Lakshmi Narasimma Swamy Temple, Avaniyapuram",
      "pincode": "605504",
      "income_category": "46_iii"
    },
    {
      "temple_id": "TM020377",
      "temple_name": "Arulmigu Mannarswamy Samedha Pachiyamman Temple",
      "district": "Tiruvannamalai District",
      "address": "Arulmigu Mannarswamy Samedha Pachiyamman Temple, Munugapattu",
      "pincode": "604504",
      "income_category": "46_iii"
    },
    {
      "temple_id": "TM020378",
      "temple_name": "Arulmigu Pirasanna Venkatramana Perumal Temple",
      "district": "Tiruvannamalai District",
      "address": "Arulmigu Pirasanna Venkatramana Perumal Temple, Riverbed, Neeppatthurai",
      "pincode": "606703",
      "income_category": "46_iii"
    },
    {
      "temple_id": "TM020379",
      "temple_name": "Arulmigu Manjaneeswarar Temple",
      "district": "Viluppuram District",
      "address": "Arulmigu Manjaneeswarar Temple, Kizhputhupattu",
      "pincode": "605014",
      "income_category": "46_iii"
    },
    {
      "temple_id": "TM020383",
      "temple_name": "Arulmigu Lakshminarasimma Swamy Temple",
      "district": "Kallakurichi District",
      "address": "Arulmigu Lakshminarasimma Swamy Temple, Parikkal",
      "pincode": "607204",
      "income_category": "46_iii"
    },
    {
      "temple_id": "TM020395",
      "temple_name": "Arulmigu Sanjeevirayar Temple",
      "district": "Kallakurichi District",
      "address": "Arulmigu Sanjeevirayar Temple, Ravuthanallur",
      "pincode": "606402",
      "income_category": "46_iii"
    },
    {
      "temple_id": "TM020396",
      "temple_name": "Arulmigu Thinthirineeshwar Temple",
      "district": "Viluppuram District",
      "address": "Arulmigu Thinthirineeshwar Temple, Tindivanam",
      "pincode": "604001",
      "income_category": "46_iii"
    },
    {
      "temple_id": "TM020397",
      "temple_name": "Arulmigu Puthumariyamman Temple",
      "district": "Cuddalore District",
      "address": "Arulmigu Puthumariyamman Temple, Kurinjipadi",
      "pincode": "607302",
      "income_category": "46_iii"
    },
    {
      "temple_id": "TM020398",
      "temple_name": "Arulmigu Vaithiyanathasamy Temple",
      "district": "Cuddalore District",
      "address": "Arulmigu Vaithiyanathasamy Temple, Tittakudi",
      "pincode": "606106",
      "income_category": "46_iii"
    },
    {
      "temple_id": "TM020399",
      "temple_name": "Arulmigu Mutthaiyasamy Temple",
      "district": "Cuddalore District",
      "address": "Arulmigu Mutthaiyasamy Temple, Perumulai",
      "pincode": "606106",
      "income_category": "46_iii"
    },
    {
      "temple_id": "TM020401",
      "temple_name": "Arulmigu Veeratteshwarar Temple",
      "district": "Cuddalore District",
      "address": "Arulmigu Veeratteshwarar Temple, Thiruvathigai, Panruti",
      "pincode": "607106",
      "income_category": "46_iii"
    },
    {
      "temple_id": "TM020403",
      "temple_name": "Arulmigu Ayyanaar Temple",
      "district": "Cuddalore District",
      "address": "Arulmigu Ayyanaar Temple, Konjikuppam",
      "pincode": "607103",
      "income_category": "46_iii"
    },
    {
      "temple_id": "TM020409",
      "temple_name": "Arulmigu Veeraanjenaya Samy Temple",
      "district": "Cuddalore District",
      "address": "Arulmigu Veeraanjenaya Samy Temple, Thirupathiripuliyur, Cuddlore Town, Taluk & District",
      "pincode": "607002",
      "income_category": "46_iii"
    },
    {
      "temple_id": "TM020411",
      "temple_name": "Arulmigu Piralayakaleyswarar Temple",
      "district": "Cuddalore District",
      "address": "Arulmigu Piralayakaleyswarar Temple, Pennadam",
      "pincode": "606105",
      "income_category": "46_iii"
    },
    {
      "temple_id": "TM020417",
      "temple_name": "Arulmigu Aathikesava Perumal Temple",
      "district": "Cuddalore District",
      "address": "Arulmigu Aathikesava Perumal Temple, Kattuparur",
      "pincode": "606104",
      "income_category": "46_iii"
    },
    {
      "temple_id": "TM020421",
      "temple_name": "Arulmigu Varadharaja Perumal Temple",
      "district": "Cuddalore District",
      "address": "Arulmigu Varadharaja Perumal Temple, Thirupathiripuliyur, Cuddalore",
      "pincode": "607002",
      "income_category": "46_iii"
    },
    {
      "temple_id": "TM020429",
      "temple_name": "Arulmigu Sivasubramaniya Samy Temple",
      "district": "Tiruvannamalai District",
      "address": "Arulmigu Sivasubramaniya Samy Temple, Elathur Mottur",
      "pincode": "606906",
      "income_category": "46_iii"
    },
    {
      "temple_id": "TM020430",
      "temple_name": "Arulmigu Vedhapurieswarar Temple",
      "district": "Tiruvannamalai District",
      "address": "Arulmigu Vedhapurieswarar Temple, Thiruvatthipuram, Cheyyar",
      "pincode": "604407",
      "income_category": "46_iii"
    },
    {
      "temple_id": "TM020547",
      "temple_name": "Arulmigu Angalamman Temple",
      "district": "Kallakurichi District",
      "address": "Arulmigu Angalamman Temple, Manimutharu River Bed, Sithalur",
      "pincode": "606106",
      "income_category": "46_iii"
    },
    {
      "temple_id": "TM025213",
      "temple_name": "Arulmigu Mathurakaliamman Temple",
      "district": "Perambalur District",
      "address": "Arulmigu Mathurakaliamman Temple, Siruvachur",
      "pincode": "621113",
      "income_category": "46_iii"
    },
    {
      "temple_id": "TM025217",
      "temple_name": "Arulmigu Mathanagopalaswamy Temple",
      "district": "Perambalur District",
      "address": "Arulmigu Mathanagopalaswamy Temple, Near Old Bus Stand, Perambalur",
      "pincode": "621212",
      "income_category": "46_iii"
    },
    {
      "temple_id": "TM025260",
      "temple_name": "Arulmigu Kaliyugavaradharajaperumal Temple",
      "district": "Ariyalur District",
      "address": "Arulmigu Kaliyugavaradharajaperumal Temple, Kallankurichi",
      "pincode": "621705",
      "income_category": "46_iii"
    },
    {
      "temple_id": "TM025303",
      "temple_name": "Arulmigu Kalyana Venkatramanaswamy Temple",
      "district": "Karur District",
      "address": "Arulmigu Kalyana Venkatramanaswamy Temple, Thanthonrimalai, Karur",
      "pincode": "639005",
      "income_category": "46_iii"
    },
    {
      "temple_id": "TM025314",
      "temple_name": "Arulmigu Kadambavaneshwarar Temple",
      "district": "Karur District",
      "address": "Arulmigu Kadambavaneshwarar Temple, Kadamber Kovil, Kadambarkoil",
      "pincode": "639104",
      "income_category": "46_iii"
    },
    {
      "temple_id": "TM025325",
      "temple_name": "Arulmigu Raththinakreeshwarar Temple",
      "district": "Karur District",
      "address": "Arulmigu Raththinakreeshwarar Temple, Ayyarmalai",
      "pincode": "639120",
      "income_category": "46_iii"
    },
    {
      "temple_id": "TM025328",
      "temple_name": "Arulmigu Kalyana Pasupatheeswara Swamy Temple",
      "district": "Karur District",
      "address": "Arulmigu Kalyana Pasupatheeswara Swamy Temple, Near Bus Stand, Karur",
      "pincode": "639001",
      "income_category": "46_iii"
    },
    {
      "temple_id": "TM025329",
      "temple_name": "Arulmigu Balasubramaniya Samy Temple",
      "district": "Karur District",
      "address": "Arulmigu Balasubramaniya Samy Temple, Vennaimalai, Kadaparai",
      "pincode": "639006",
      "income_category": "46_iii"
    },
    {
      "temple_id": "TM025369",
      "temple_name": "Arulmigu Mariyamman Temple",
      "district": "Karur District",
      "address": "Arulmigu Mariyamman Temple, Karur",
      "pincode": "639001",
      "income_category": "46_iii"
    },
    {
      "temple_id": "TM025405",
      "temple_name": "Arulmigu Muthumariyamman Temple",
      "district": "Pudukkottai District",
      "address": "Arulmigu Muthumariyamman Temple, KonnaiyurPonnamaravathi",
      "pincode": "622401",
      "income_category": "46_iii"
    },
    {
      "temple_id": "TM025414",
      "temple_name": "Arulmigu Veeramakaliamman Temple",
      "district": "Pudukkottai District",
      "address": "Arulmigu Veeramakaliamman Temple, Aranthangi",
      "pincode": "614616",
      "income_category": "46_iii"
    },
    {
      "temple_id": "TM025421",
      "temple_name": "Arulmigu Perungaraiyadi Minda Ayyanar Temple",
      "district": "Pudukkottai District",
      "address": "Arulmigu Perungaraiyadi Minda Ayyanar Temple, Kulamangalam, Kulamangalam",
      "pincode": "614624",
      "income_category": "46_iii"
    },
    {
      "temple_id": "TM025429",
      "temple_name": "Arulmigu Veeramakaliamman Temple",
      "district": "Pudukkottai District",
      "address": "Arulmigu Veeramakaliamman Temple, Perambur",
      "pincode": "622203",
      "income_category": "46_iii"
    },
    {
      "temple_id": "TM025434",
      "temple_name": "Arulmigu Thiruvettalazhiya Ayyanar Temple",
      "district": "Pudukkottai District",
      "address": "Arulmigu Thiruvettalazhiya Ayyanar Temple, Senganam",
      "pincode": "614629",
      "income_category": "46_iii"
    },
    {
      "temple_id": "TM025447",
      "temple_name": "Arulmigu Nadiyamman Temple",
      "district": "Pudukkottai District",
      "address": "Arulmigu Nadiyamman Temple, Keelathur",
      "pincode": "622304",
      "income_category": "46_iii"
    },
    {
      "temple_id": "TM025471",
      "temple_name": "Arulmigu Sanjeevirayar Temple",
      "district": "Pudukkottai District",
      "address": "Arulmigu Sanjeevirayar Temple, Pidampatti",
      "pincode": "622515",
      "income_category": "46_iii"
    },
    {
      "temple_id": "TM025700",
      "temple_name": "Arulmigu Aranganatha Swamy Temple",
      "district": "Thiruchirappalli District",
      "address": "Arulmigu Aranganatha Swamy Temple, Srirangam",
      "pincode": "620006",
      "income_category": "46_iii"
    },
    {
      "temple_id": "TM025704",
      "temple_name": "Arulmigu Mariamman Temple",
      "district": "Thiruchirappalli District",
      "address": "Arulmigu Mariamman Temple, Samayapuram",
      "pincode": "621112",
      "income_category": "46_iii"
    },
    {
      "temple_id": "TM025705",
      "temple_name": "Arulmigu Thayumanaswamy Temple",
      "district": "Thiruchirappalli District",
      "address": "Arulmigu Thayumanaswamy Temple, Rock Fort, Thiruchirappalli",
      "pincode": "620002",
      "income_category": "46_iii"
    },
    {
      "temple_id": "TM025706",
      "temple_name": "Arulmigu Jambukeswarar Akilandeswari Temple",
      "district": "Thiruchirappalli District",
      "address": "Arulmigu Jambukeswarar Akilandeswari Temple, Thiruchirappalli",
      "pincode": "620005",
      "income_category": "46_iii"
    },
    {
      "temple_id": "TM025708",
      "temple_name": "Arulmigu Vekkaliamman Temple",
      "district": "Thiruchirappalli District",
      "address": "Arulmigu Vekkaliamman Temple, Thiruchirappalli",
      "pincode": "620003",
      "income_category": "46_iii"
    },
    {
      "temple_id": "TM025709",
      "temple_name": "Arulmigu Subramaniya Swamy Temple",
      "district": "Thiruchirappalli District",
      "address": "Arulmigu Subramaniya Swamy Temple, Kumaravayalur, Kumaravayalur",
      "pincode": "620102",
      "income_category": "46_iii"
    },
    {
      "temple_id": "TM025718",
      "temple_name": "Arulmigu Saptharisheeswarar Temple",
      "district": "Thiruchirappalli District",
      "address": "Arulmigu Saptharisheeswarar Temple, Lalgudi",
      "pincode": "621601",
      "income_category": "46_iii"
    },
    {
      "temple_id": "TM025726",
      "temple_name": "Arulmigu Uthamar Temple,",
      "district": "Thiruchirappalli District",
      "address": "Arulmigu Uthamar Temple,, No1. Tolgate, Mannachanallur",
      "pincode": "621216",
      "income_category": "46_iii"
    },
    {
      "temple_id": "TM025735",
      "temple_name": "Arulmigu Madhyarjuneshwarar Temple",
      "district": "Thiruchirappalli District",
      "address": "Arulmigu Madhyarjuneshwarar Temple, Pettavaithalai",
      "pincode": "639112",
      "income_category": "46_iii"
    },
    {
      "temple_id": "TM025741",
      "temple_name": "Arulmigu Prasanna Vengatajalapathy Temple",
      "district": "Thiruchirappalli District",
      "address": "Arulmigu Prasanna Vengatajalapathy Temple, Sorathur",
      "pincode": "621002",
      "income_category": "46_iii"
    },
    {
      "temple_id": "TM025748",
      "temple_name": "Arulmigu Naganathaswamy Temple",
      "district": "Thiruchirappalli District",
      "address": "Arulmigu Naganathaswamy Temple, Thiruchirappalli",
      "pincode": "620002",
      "income_category": "46_iii"
    },
    {
      "temple_id": "TM025798",
      "temple_name": "Arulmigu Nallandavar Vagayara Temple",
      "district": "Thiruchirappalli District",
      "address": "Arulmigu Nallandavar Vagayara Temple, Kannudaiyanpatty",
      "pincode": "621306",
      "income_category": "46_iii"
    },
    {
      "temple_id": "TM025822",
      "temple_name": "Arulmigu Anjeneyaswamy Temple",
      "district": "Thiruchirappalli District",
      "address": "Arulmigu Anjeneyaswamy Temple, Kallukuzhi, Thiruchirappalli",
      "pincode": "620020",
      "income_category": "46_iii"
    },
    {
      "temple_id": "TM025846",
      "temple_name": "Arulmigu Gneeliwaneswarar Temple",
      "district": "Thiruchirappalli District",
      "address": "Arulmigu Gneeliwaneswarar Temple, Thiruppanjeeli, Thiruppanjeeli",
      "pincode": "621005",
      "income_category": "46_iii"
    },
    {
      "temple_id": "TM025871",
      "temple_name": "Arulmigu Pirammapurishwarar Swamy Temple",
      "district": "Thiruchirappalli District",
      "address": "Arulmigu Pirammapurishwarar Swamy Temple, Thirupattur",
      "pincode": "621105",
      "income_category": "46_iii"
    },
    {
      "temple_id": "TM025898",
      "temple_name": "Arulmigu Prasana Vengadajalapathi Temple",
      "district": "Thiruchirappalli District",
      "address": "Arulmigu Prasana Vengadajalapathi Temple, Gunaseelam",
      "pincode": "621204",
      "income_category": "46_iii"
    },
    {
      "temple_id": "TM026341",
      "temple_name": "Pudukkottai Devasthanam",
      "district": "Pudukkottai District",
      "address": "Pudukkottai Devasthanam, Pallvankulam Vadakarai, Pudukkottai",
      "pincode": "622001",
      "income_category": "46_iii"
    },
    {
      "temple_id": "TM031962",
      "temple_name": "Arulmigu Meenakshi Sundaraswarar Temple",
      "district": "Madurai District",
      "address": "Arulmigu Meenakshi Sundaraswarar Temple, Madurai",
      "pincode": "625001",
      "income_category": "46_iii"
    },
    {
      "temple_id": "TM031985",
      "temple_name": "Arulmigu Subramaniyaswamy Temple",
      "district": "Madurai District",
      "address": "Arulmigu Subramaniyaswamy Temple, Thirupparankundram",
      "pincode": "625005",
      "income_category": "46_iii"
    },
    {
      "temple_id": "TM031992",
      "temple_name": "Arulmigu Koodalagar Temple",
      "district": "Madurai District",
      "address": "Arulmigu Koodalagar Temple, Madurai",
      "pincode": "625001",
      "income_category": "46_iii"
    },
    {
      "temple_id": "TM031996",
      "temple_name": "Arulmigu Dhandayuthapaniswamy Temple",
      "district": "Madurai District",
      "address": "Arulmigu Dhandayuthapaniswamy Temple, Madurai",
      "pincode": "625001",
      "income_category": "46_iii"
    },
    {
      "temple_id": "TM032002",
      "temple_name": "Arulmigu Mathanagopalasamy Temple",
      "district": "Madurai District",
      "address": "Arulmigu Mathanagopalasamy Temple, Madurai",
      "pincode": "625001",
      "income_category": "46_iii"
    },
    {
      "temple_id": "TM032007",
      "temple_name": "Arulmigu Veerama Kalliamman Temple",
      "district": "Madurai District",
      "address": "Arulmigu Veerama Kalliamman Temple, Madurai",
      "pincode": "625011",
      "income_category": "46_iii"
    },
    {
      "temple_id": "TM032008",
      "temple_name": "Arulmigu Jeyaveera Anjaneyar Swamy Temple",
      "district": "Madurai District",
      "address": "Arulmigu Jeyaveera Anjaneyar Swamy Temple, Simmakkal, Madurai",
      "pincode": "625001",
      "income_category": "46_iii"
    },
    {
      "temple_id": "TM032010",
      "temple_name": "Arulmigu Arasamaram Pillaiyar Temple",
      "district": "Madurai District",
      "address": "Arulmigu Arasamaram Pillaiyar Temple, Kamarajar Salai, Madurai",
      "pincode": "625001",
      "income_category": "46_iii"
    },
    {
      "temple_id": "TM032017",
      "temple_name": "Arulmigu Kalyana Sundareswarar Temple",
      "district": "Madurai District",
      "address": "Arulmigu Kalyana Sundareswarar Temple, Avaniyapuram, Madurai",
      "pincode": "625012",
      "income_category": "46_iii"
    },
    {
      "temple_id": "TM032058",
      "temple_name": "Arulmigu Malaiyandi Karuppanaswamy Temple",
      "district": "Madurai District",
      "address": "Arulmigu Malaiyandi Karuppanaswamy Temple, Valayankulam",
      "pincode": "625022",
      "income_category": "46_iii"
    },
    {
      "temple_id": "TM032060",
      "temple_name": "Arulmigu Pandimuneeswarar Temple",
      "district": "Madurai District",
      "address": "Arulmigu Pandimuneeswarar Temple, Melamadai",
      "pincode": "625020",
      "income_category": "46_iii"
    },
    {
      "temple_id": "TM032061",
      "temple_name": "Arulmigu Kalamega Perumal Temple",
      "district": "Madurai District",
      "address": "Arulmigu Kalamega Perumal Temple, Thirumohur",
      "pincode": "625107",
      "income_category": "46_iii"
    },
    {
      "temple_id": "TM032065",
      "temple_name": "Arulmigu Sarveswarar Temple",
      "district": "Madurai District",
      "address": "Arulmigu Sarveswarar Temple, Annanagar, Madurai",
      "pincode": "625020",
      "income_category": "46_iii"
    },
    {
      "temple_id": "TM032066",
      "temple_name": "Arulmigu Poonga Murugan Temple",
      "district": "Madurai District",
      "address": "Arulmigu Poonga Murugan Temple, Madurai",
      "pincode": "625002",
      "income_category": "46_iii"
    },
    {
      "temple_id": "TM032079",
      "temple_name": "Arulmigu Janagai Marriamman Temple",
      "district": "Madurai District",
      "address": "Arulmigu Janagai Marriamman Temple, Sholavandan",
      "pincode": "625214",
      "income_category": "46_iii"
    },
    {
      "temple_id": "TM032107",
      "temple_name": "Arulmigu Tharmasastha Temple",
      "district": "Theni District",
      "address": "Arulmigu Tharmasastha Temple, Thimmarasanayakanur",
      "pincode": "625512",
      "income_category": "46_iii"
    },
    {
      "temple_id": "TM032109",
      "temple_name": "Arulmigu Sundaramahalingaswamy Temple",
      "district": "Madurai District",
      "address": "Arulmigu Sundaramahalingaswamy Temple, Saputur",
      "pincode": "625705",
      "income_category": "46_iii"
    },
    {
      "temple_id": "TM032110",
      "temple_name": "Arulmigu Sandanamahalingaswamy Temple",
      "district": "Madurai District",
      "address": "Arulmigu Sandanamahalingaswamy Temple, Sapdur",
      "pincode": "625705",
      "income_category": "46_iii"
    },
    {
      "temple_id": "TM032123",
      "temple_name": "Arulmigu Kallalagar Temple",
      "district": "Madurai District",
      "address": "Arulmigu Kallalagar Temple, Melur",
      "pincode": "625301",
      "income_category": "46_iii"
    },
    {
      "temple_id": "TM032124",
      "temple_name": "Arulmigu Murugan Temple",
      "district": "Madurai District",
      "address": "Arulmigu Murugan Temple, Alagarkovil",
      "pincode": "625301",
      "income_category": "46_iii"
    },
    {
      "temple_id": "TM032135",
      "temple_name": "Arulmigu Marriamman Temple",
      "district": "Dindigul District",
      "address": "Arulmigu Marriamman Temple, Natham",
      "pincode": "624401",
      "income_category": "46_iii"
    },
    {
      "temple_id": "TM032147",
      "temple_name": "Arulmigu Kalahatheeswarar Temple",
      "district": "Dindigul District",
      "address": "Arulmigu Kalahatheeswarar Temple, Dindigul",
      "pincode": "624001",
      "income_category": "46_iii"
    },
    {
      "temple_id": "TM032150",
      "temple_name": "Arulmigu Soundararaja Perumal Temple",
      "district": "Dindigul District",
      "address": "Arulmigu Soundararaja Perumal Temple, Thadicombu, Dindugul",
      "pincode": "624709",
      "income_category": "46_iii"
    },
    {
      "temple_id": "TM032151",
      "temple_name": "Arulmigu Kottai Mariamman Temple",
      "district": "Dindigul District",
      "address": "Arulmigu Kottai Mariamman Temple, Dindigul",
      "pincode": "624001",
      "income_category": "46_iii"
    },
    {
      "temple_id": "TM032152",
      "temple_name": "Arulmigu Gopinathaswami Temple",
      "district": "Dindigul District",
      "address": "Arulmigu Gopinathaswami Temple, Reddiyarchathiram",
      "pincode": "624622",
      "income_category": "46_iii"
    },
    {
      "temple_id": "TM032153",
      "temple_name": "Arulmigu Seenivasa Perumal Temple",
      "district": "Dindigul District",
      "address": "Arulmigu Seenivasa Perumal Temple, Dindigul",
      "pincode": "624001",
      "income_category": "46_iii"
    },
    {
      "temple_id": "TM032156",
      "temple_name": "Arulmigu Sengkunthar Kaliamman Temple",
      "district": "Dindigul District",
      "address": "Arulmigu Sengkunthar Kaliamman Temple, Dindigul",
      "pincode": "624001",
      "income_category": "46_iii"
    },
    {
      "temple_id": "TM032158",
      "temple_name": "Arulmigu Muthallamman Temple",
      "district": "Dindigul District",
      "address": "Arulmigu Muthallamman Temple, Agaram",
      "pincode": "624709",
      "income_category": "46_iii"
    },
    {
      "temple_id": "TM032196",
      "temple_name": "Arulmigu Soundararaja Perumal Temple",
      "district": "Dindigul District",
      "address": "Arulmigu Soundararaja Perumal Temple, Vadamadurai",
      "pincode": "624801",
      "income_category": "46_iii"
    },
    {
      "temple_id": "TM032203",
      "temple_name": "Arulmigu Dhandayuthapaniswamy Temple",
      "district": "Dindigul District",
      "address": "Arulmigu Dhandayuthapaniswamy Temple, Palani",
      "pincode": "624601",
      "income_category": "46_iii"
    },
    {
      "temple_id": "TM032242",
      "temple_name": "Arulmigu Vigneshwarar Vagaiyar Temple",
      "district": "Dindigul District",
      "address": "Arulmigu Vigneshwarar Vagaiyar Temple, Old Ayakudi, Palani",
      "pincode": "624613",
      "income_category": "46_iii"
    },
    {
      "temple_id": "TM032259",
      "temple_name": "Arulmigu Moolanathasamy Temple",
      "district": "Madurai District",
      "address": "Arulmigu Moolanathasamy Temple, Tenkarai",
      "pincode": "625207",
      "income_category": "46_iii"
    },
    {
      "temple_id": "TM032281",
      "temple_name": "Arulmigu Gowmariayyan Temple",
      "district": "Theni District",
      "address": "Arulmigu Gowmariayyan Temple, Veerapandi",
      "pincode": "625534",
      "income_category": "46_iii"
    },
    {
      "temple_id": "TM032285",
      "temple_name": "Arulmigu Poolanantheesvarar Temple",
      "district": "Theni District",
      "address": "Arulmigu Poolanantheesvarar Temple, Chinnamanur",
      "pincode": "625515",
      "income_category": "46_iii"
    },
    {
      "temple_id": "TM032286",
      "temple_name": "Arulmigu Moongilanai Kamatchiamman Temple",
      "district": "Theni District",
      "address": "Arulmigu Moongilanai Kamatchiamman Temple, Devathanapatti",
      "pincode": "625602",
      "income_category": "46_iii"
    },
    {
      "temple_id": "TM032287",
      "temple_name": "Arulmigu Suyambu Saniswara Bhavan Temple",
      "district": "Theni District",
      "address": "Arulmigu Suyambu Saniswara Bhavan Temple, Kuchanur",
      "pincode": "625515",
      "income_category": "46_iii"
    },
    {
      "temple_id": "TM032288",
      "temple_name": "Arulmigu Kambarayaperumal Kasivishwanatha Temple",
      "district": "Theni District",
      "address": "Arulmigu Kambarayaperumal Kasivishwanatha Temple, Cumbum",
      "pincode": "625516",
      "income_category": "46_iii"
    },
    {
      "temple_id": "TM032289",
      "temple_name": "Arulmigu Mavootru Velappar Temple",
      "district": "Theni District",
      "address": "Arulmigu Mavootru Velappar Temple, Theppampatti",
      "pincode": "625512",
      "income_category": "46_iii"
    },
    {
      "temple_id": "TM032290",
      "temple_name": "Arulmigu Thirukkalatheeswarar Temple",
      "district": "Theni District",
      "address": "Arulmigu Thirukkalatheeswarar Temple, Uthamapalayam",
      "pincode": "625533",
      "income_category": "46_iii"
    },
    {
      "temple_id": "TM032296",
      "temple_name": "Arulmigu Balasubramaniyaswamy Temple",
      "district": "Theni District",
      "address": "Arulmigu Balasubramaniyaswamy Temple, Thenkarai, Periyakulam",
      "pincode": "625601",
      "income_category": "46_iii"
    },
    {
      "temple_id": "TM035671",
      "temple_name": "Arulmigu Ramanathaswamy Temple",
      "district": "Ramanathapuram District",
      "address": "Arulmigu Ramanathaswamy Temple, Rameswaram",
      "pincode": "623526",
      "income_category": "46_iii"
    },
    {
      "temple_id": "TM035702",
      "temple_name": "Arulmigu Mariamman Temple",
      "district": "Virudhunagar District",
      "address": "Arulmigu Mariamman Temple, Irukkangudi",
      "pincode": "626202",
      "income_category": "46_iii"
    },
    {
      "temple_id": "TM035703",
      "temple_name": "Arulmigu Adaikalamkatha Iyanar And Bathirakaliamman Temple",
      "district": "Sivagangai District",
      "address": "Arulmigu Adaikalamkatha Iyanar And Bathirakaliamman Temple, Madapuram",
      "pincode": "630611",
      "income_category": "46_iii"
    },
    {
      "temple_id": "TM035708",
      "temple_name": "Arulmigu Vettudaiyar Kaliamman Temple",
      "district": "Sivagangai District",
      "address": "Arulmigu Vettudaiyar Kaliamman Temple, Ariyakurichi",
      "pincode": "630556",
      "income_category": "46_iii"
    },
    {
      "temple_id": "TM035719",
      "temple_name": "Arulmigu Koppudayanayaki Amman Temple",
      "district": "Sivagangai District",
      "address": "Arulmigu Koppudayanayaki Amman Temple, Karaikudi",
      "pincode": "630001",
      "income_category": "46_iii"
    },
    {
      "temple_id": "TM035725",
      "temple_name": "Arulmigu Muthumariamman Temple",
      "district": "Sivagangai District",
      "address": "Arulmigu Muthumariamman Temple, Meenakshipuram, Karaikudi",
      "pincode": "630001",
      "income_category": "46_iii"
    },
    {
      "temple_id": "TM035730",
      "temple_name": "Arulmigu Silambanichidambara Vinayagar Temple",
      "district": "Sivagangai District",
      "address": "Arulmigu Silambanichidambara Vinayagar Temple, Devakottai",
      "pincode": "630302",
      "income_category": "46_iii"
    },
    {
      "temple_id": "TM035733",
      "temple_name": "Arulmigu Thiruvengatamudayan Temple",
      "district": "Sivagangai District",
      "address": "Arulmigu Thiruvengatamudayan Temple, Ariyakkudi",
      "pincode": "630202",
      "income_category": "46_iii"
    },
    {
      "temple_id": "TM035740",
      "temple_name": "Arulmigu Nachiyar (Aandal) Temple",
      "district": "Virudhunagar District",
      "address": "Arulmigu Nachiyar (Aandal) Temple, Srivilliputhur",
      "pincode": "626125",
      "income_category": "46_iii"
    },
    {
      "temple_id": "TM035744",
      "temple_name": "Arulmigu Mayuranatha Swamy Temple",
      "district": "Virudhunagar District",
      "address": "Arulmigu Mayuranatha Swamy Temple, Pethavanallur,",
      "pincode": "626117",
      "income_category": "46_iii"
    },
    {
      "temple_id": "TM035745",
      "temple_name": "Arulmigu Nachadai Thavirtaruliya Swamy Temple",
      "district": "Virudhunagar District",
      "address": "Arulmigu Nachadai Thavirtaruliya Swamy Temple, South Devathanam",
      "pincode": "626121",
      "income_category": "46_iii"
    },
    {
      "temple_id": "TM035748",
      "temple_name": "Arulmigu Nintra Narayana Perumal Temple",
      "district": "Virudhunagar District",
      "address": "Arulmigu Nintra Narayana Perumal Temple, Thiruthangal",
      "pincode": "626130",
      "income_category": "46_iii"
    },
    {
      "temple_id": "TM035757",
      "temple_name": "Arulmigu Viswanathaswamy Temple",
      "district": "Virudhunagar District",
      "address": "Arulmigu Viswanathaswamy Temple, Sivakasi, Sivakasi",
      "pincode": "626123",
      "income_category": "46_iii"
    },
    {
      "temple_id": "TM035766",
      "temple_name": "Arulmigu Chokkanatha Swamy Temple",
      "district": "Virudhunagar District",
      "address": "Arulmigu Chokkanatha Swamy Temple, Aruppukottai",
      "pincode": "626101",
      "income_category": "46_iii"
    },
    {
      "temple_id": "TM035778",
      "temple_name": "Arulmigu Vaithiyanatha Swamy Temple",
      "district": "Virudhunagar District",
      "address": "Arulmigu Vaithiyanatha Swamy Temple, Madavarvalagam, Srivilliputur",
      "pincode": "626125",
      "income_category": "46_iii"
    },
    {
      "temple_id": "TM035786",
      "temple_name": "Arulmigu Ainthukoil Devasthanam",
      "district": "Sivagangai District",
      "address": "Arulmigu Ainthukoil Devasthanam, Kundrakudi",
      "pincode": "630206",
      "income_category": "46_iii"
    },
    {
      "temple_id": "TM035793",
      "temple_name": "Arulmigu Karpaka Vinayagar Temple",
      "district": "Sivagangai District",
      "address": "Arulmigu Karpaka Vinayagar Temple, Pillaiyarpatti",
      "pincode": "630207",
      "income_category": "46_iii"
    },
    {
      "temple_id": "TM035794",
      "temple_name": "Arulmigu Meenatchi Sundareswarar Temple",
      "district": "Sivagangai District",
      "address": "Arulmigu Meenatchi Sundareswarar Temple, Keelaseevalpatti",
      "pincode": "630205",
      "income_category": "46_iii"
    },
    {
      "temple_id": "TM035826",
      "temple_name": "Arulmigu Muthumariamman Temple",
      "district": "Sivagangai District",
      "address": "Arulmigu Muthumariamman Temple, Thayamangalam",
      "pincode": "630709",
      "income_category": "46_iii"
    },
    {
      "temple_id": "TM035827",
      "temple_name": "Arulmigu Meenakshi Sundareshwarar Matrum Muthalamman Temple",
      "district": "Ramanathapuram District",
      "address": "Arulmigu Meenakshi Sundareshwarar Matrum Muthalamman Temple, Paramakudi",
      "pincode": "623707",
      "income_category": "46_iii"
    },
    {
      "temple_id": "TM035845",
      "temple_name": "Arulmigu Vazhividu Murugan Temple",
      "district": "Ramanathapuram District",
      "address": "Arulmigu Vazhividu Murugan Temple, Ramanathapuram",
      "pincode": "623501",
      "income_category": "46_iii"
    },
    {
      "temple_id": "TM035878",
      "temple_name": "Arulmigu Parasakthi Mariamman Vagaiara Temple",
      "district": "Virudhunagar District",
      "address": "Arulmigu Parasakthi Mariamman Vagaiara Temple, Virudhunagar",
      "pincode": "626001",
      "income_category": "46_iii"
    },
    {
      "temple_id": "TM035895",
      "temple_name": "Arulmigu General Devasthanam",
      "district": "Ramanathapuram District",
      "address": "Arulmigu General Devasthanam, Ramanathapuram",
      "pincode": "623501",
      "income_category": "46_iii"
    },
    {
      "temple_id": "TM035899",
      "temple_name": "Arulmigu Aadhijeganathaperumal Temple",
      "district": "Ramanathapuram District",
      "address": "Arulmigu Aadhijeganathaperumal Temple, Thiruppullani",
      "pincode": "623532",
      "income_category": "46_iii"
    },
    {
      "temple_id": "TM035905",
      "temple_name": "Arulmigu Mangalanathaswami Temple",
      "district": "Ramanathapuram District",
      "address": "Arulmigu Mangalanathaswami Temple, Thiruuthirakosamangai",
      "pincode": "623533",
      "income_category": "46_iii"
    },
    {
      "temple_id": "TM035924",
      "temple_name": "Arulmigu Naganathaswamy Temple",
      "district": "Ramanathapuram District",
      "address": "Arulmigu Naganathaswamy Temple, Nainarkovil",
      "pincode": "623705",
      "income_category": "46_iii"
    },
    {
      "temple_id": "TM035964",
      "temple_name": "Sivagangai Samasthanam Devasthanam Temple",
      "district": "Sivagangai District",
      "address": "Sivagangai Samasthanam Devasthanam Temple, Aranmanai(Old Palace ),",
      "pincode": "630561",
      "income_category": "46_iii"
    },
    {
      "temple_id": "TM037836",
      "temple_name": "Arulmigu Thirumalaikumaraswamy Temple",
      "district": "Tenkasi District",
      "address": "Arulmigu Thirumalaikumaraswamy Temple, Panpoli",
      "pincode": "627807",
      "income_category": "46_iii"
    },
    {
      "temple_id": "TM037857",
      "temple_name": "Arulmigu Thirucourtrallanathaswamy Temple",
      "district": "Tenkasi District",
      "address": "Arulmigu Thirucourtrallanathaswamy Temple, Courtallam, Tenkasi",
      "pincode": "627802",
      "income_category": "46_iii"
    },
    {
      "temple_id": "TM037875",
      "temple_name": "Arulmigu Sankaranarayanaswamy Temple",
      "district": "Tenkasi District",
      "address": "Arulmigu Sankaranarayanaswamy Temple, Sankarankoil",
      "pincode": "627756",
      "income_category": "46_iii"
    },
    {
      "temple_id": "TM037880",
      "temple_name": "Arulmigu Kasiviswanathaswamy Temple",
      "district": "Tenkasi District",
      "address": "Arulmigu Kasiviswanathaswamy Temple, Tenkasi",
      "pincode": "627811",
      "income_category": "46_iii"
    },
    {
      "temple_id": "TM037881",
      "temple_name": "Arulmigu Nellaiyappar Arultharum Kanthimathiamman Temple",
      "district": "Tirunelveli District",
      "address": "Arulmigu Nellaiyappar Arultharum Kanthimathiamman Temple, Tirunelveli",
      "pincode": "627006",
      "income_category": "46_iii"
    },
    {
      "temple_id": "TM037884",
      "temple_name": "Arulmigu Kailasanathar Temple",
      "district": "Tirunelveli District",
      "address": "Arulmigu Kailasanathar Temple, Kailasapuram",
      "pincode": "627001",
      "income_category": "46_iii"
    },
    {
      "temple_id": "TM037885",
      "temple_name": "Arulmigu Palayam Salai Kumaraswamy Temple",
      "district": "Tirunelveli District",
      "address": "Arulmigu Palayam Salai Kumaraswamy Temple, Junction, Tirunelveli",
      "pincode": "627001",
      "income_category": "46_iii"
    },
    {
      "temple_id": "TM037887",
      "temple_name": "Arulmigu Santhivinayagar Temple",
      "district": "Tirunelveli District",
      "address": "Arulmigu Santhivinayagar Temple, Tirunelveli Town",
      "pincode": "627006",
      "income_category": "46_iii"
    },
    {
      "temple_id": "TM037892",
      "temple_name": "Arulmigu Ilanji Kumarar Thirukoil",
      "district": "Tenkasi District",
      "address": "Arulmigu Ilanji Kumarar Thirukoil, Courtallam Road, Ilanji",
      "pincode": "627805",
      "income_category": "46_iii"
    },
    {
      "temple_id": "TM037900",
      "temple_name": "Arulmigu Vaithialinga Swami Temple",
      "district": "Tenkasi District",
      "address": "Arulmigu Vaithialinga Swami Temple, Aladipatti",
      "pincode": "627853",
      "income_category": "46_iii"
    },
    {
      "temple_id": "TM037902",
      "temple_name": "Arulmigu Papanasam Temple",
      "district": "Tirunelveli District",
      "address": "Arulmigu Papanasam Temple, Papanasam",
      "pincode": "627425",
      "income_category": "46_iii"
    },
    {
      "temple_id": "TM037919",
      "temple_name": "Arulmigu Sorimuthu Ayyanar Temple",
      "district": "Tirunelveli District",
      "address": "Arulmigu Sorimuthu Ayyanar Temple, Singampatti",
      "pincode": "627416",
      "income_category": "46_iii"
    },
    {
      "temple_id": "TM037926",
      "temple_name": "Arulmigu Agastheeswarar Temple",
      "district": "Tirunelveli District",
      "address": "Arulmigu Agastheeswarar Temple, Bus Stop, Ambasamudram",
      "pincode": "627401",
      "income_category": "46_iii"
    },
    {
      "temple_id": "TM037942",
      "temple_name": "Arulmigu Venkatachalapathy Temple",
      "district": "Tirunelveli District",
      "address": "Arulmigu Venkatachalapathy Temple, Melathiruvenkatanathapuram",
      "pincode": "627006",
      "income_category": "46_iii"
    },
    {
      "temple_id": "TM037996",
      "temple_name": "Arulmigu Kulathoor Ayyan Sastha Temple",
      "district": "Tirunelveli District",
      "address": "Arulmigu Kulathoor Ayyan Sastha Temple, Thrirunelveli Town",
      "pincode": "620076",
      "income_category": "46_iii"
    },
    {
      "temple_id": "TM038025",
      "temple_name": "Arulmigu Karaiyadi Madasamy Temple",
      "district": "Tirunelveli District",
      "address": "Arulmigu Karaiyadi Madasamy Temple, Piramcherry",
      "pincode": "627451",
      "income_category": "46_iii"
    },
    {
      "temple_id": "TM038027",
      "temple_name": "Arulmigu Thenkarai Maharajeshwarar Temple",
      "district": "Tirunelveli District",
      "address": "Arulmigu Thenkarai Maharajeshwarar Temple, Chitoor",
      "pincode": "627127",
      "income_category": "46_iii"
    },
    {
      "temple_id": "TM038058",
      "temple_name": "Arulmigu Suambulinga Swamy Temple",
      "district": "Tirunelveli District",
      "address": "Arulmigu Suambulinga Swamy Temple, Uvari",
      "pincode": "627651",
      "income_category": "46_iii"
    },
    {
      "temple_id": "TM038059",
      "temple_name": "Arulmigu Chinthamaninatha Swamy Temple",
      "district": "Tenkasi District",
      "address": "Arulmigu Chinthamaninatha Swamy Temple, Vasudevanallur",
      "pincode": "627758",
      "income_category": "46_iii"
    },
    {
      "temple_id": "TM038063",
      "temple_name": "Arulmigu Gopala Krishna Swamy Etc Temple",
      "district": "Tenkasi District",
      "address": "Arulmigu Gopala Krishna Swamy Etc Temple, Krishnapuram",
      "pincode": "627759",
      "income_category": "46_iii"
    },
    {
      "temple_id": "TM038078",
      "temple_name": "Arulmigu Subramaniaswamy Temple",
      "district": "Tirunelveli District",
      "address": "Arulmigu Subramaniaswamy Temple, Valliyoor",
      "pincode": "627117",
      "income_category": "46_iii"
    },
    {
      "temple_id": "TM038187",
      "temple_name": "Arulmigu Pooludaiyar Sastha Temple",
      "district": "Tirunelveli District",
      "address": "Arulmigu Pooludaiyar Sastha Temple, Marugalthalai",
      "pincode": "627351",
      "income_category": "46_iii"
    },
    {
      "temple_id": "TM038189",
      "temple_name": "Arulmigu Karkuvel Ayyanar Temple",
      "district": "Thoothukudi District",
      "address": "Arulmigu Karkuvel Ayyanar Temple, Therikudieruppu",
      "pincode": "628205",
      "income_category": "46_iii"
    },
    {
      "temple_id": "TM038190",
      "temple_name": "Arulmigu Poovananathaswamy Temple",
      "district": "Thoothukudi District",
      "address": "Arulmigu Poovananathaswamy Temple, Kovilpatti",
      "pincode": "628501",
      "income_category": "46_iii"
    },
    {
      "temple_id": "TM038191",
      "temple_name": "Arulmigu Swamy Chithambareswarar Group Of Temple",
      "district": "Thoothukudi District",
      "address": "Arulmigu Swamy Chithambareswarar Group Of Temple, Chettiyapathu",
      "pincode": "628203",
      "income_category": "46_iii"
    },
    {
      "temple_id": "TM038193",
      "temple_name": "Arulmigu Sankararameshwarar Temple",
      "district": "Thoothukudi District",
      "address": "Arulmigu Sankararameshwarar Temple, Thoothukudi",
      "pincode": "628002",
      "income_category": "46_iii"
    },
    {
      "temple_id": "TM038196",
      "temple_name": "Arulmigu Kallapiranswamy Temple",
      "district": "Thoothukudi District",
      "address": "Arulmigu Kallapiranswamy Temple, Near Post Office, Srivaikundam",
      "pincode": "628601",
      "income_category": "46_iii"
    },
    {
      "temple_id": "TM038199",
      "temple_name": "Arulmigu Athinathar Alwar Temple",
      "district": "Thoothukudi District",
      "address": "Arulmigu Athinathar Alwar Temple, Alwarthirunagari",
      "pincode": "628612",
      "income_category": "46_iii"
    },
    {
      "temple_id": "TM038202",
      "temple_name": "Arulmigu Vaikundapathi Temle",
      "district": "Thoothukudi District",
      "address": "Arulmigu Vaikundapathi Temle, Thoothukudi",
      "pincode": "628002",
      "income_category": "46_iii"
    },
    {
      "temple_id": "TM038203",
      "temple_name": "Arulmigu Muthumalaiamman Temple",
      "district": "Thoothukudi District",
      "address": "Arulmigu Muthumalaiamman Temple, Kurankani",
      "pincode": "628623",
      "income_category": "46_iii"
    },
    {
      "temple_id": "TM038204",
      "temple_name": "Arulmigu Kalugachala Moorthy Temple",
      "district": "Thoothukudi District",
      "address": "Arulmigu Kalugachala Moorthy Temple, Kalugumalai",
      "pincode": "628552",
      "income_category": "46_iii"
    },
    {
      "temple_id": "TM038271",
      "temple_name": "Arulmigu Subramania Swamy Temple",
      "district": "Thoothukudi District",
      "address": "Arulmigu Subramania Swamy Temple, Tiruchendur",
      "pincode": "628215",
      "income_category": "46_iii"
    },
    {
      "temple_id": "TM038272",
      "temple_name": "Arulmigu Mutharamman Temple",
      "district": "Thoothukudi District",
      "address": "Arulmigu Mutharamman Temple, Kulasekaranpatinam",
      "pincode": "628206",
      "income_category": "46_iii"
    },
    {
      "temple_id": "TM038306",
      "temple_name": "Arulmigu Essakiyamman Temple",
      "district": "Kanyakumari District",
      "address": "Arulmigu Essakiyamman Temple, Muppandal",
      "pincode": "629301",
      "income_category": "46_iii"
    },
    {
      "temple_id": "TM045056",
      "temple_name": "Kanyakumari District Temples Suchindrum",
      "district": "Kanyakumari District",
      "address": "Kanyakumari District Temples Suchindrum, Suchindrum, Suchindrum",
      "pincode": "629704",
      "income_category": "46_iii"
    },
    {
      "temple_id": "TM000316",
      "temple_name": "Arulmigu Dhanakotti Ammal Sathram Arakattalai",
      "district": "Chennai District",
      "address": "Arulmigu Dhanakotti Ammal Sathram Arakattalai, Thiruvottriyur, Chennai",
      "pincode": "600019",
      "income_category": "46_iii"
    },
    {
      "temple_id": "TM000447",
      "temple_name": "Arulmigu Sundoor Vengadarengaiya Chetti Kattalai",
      "district": "Chennai District",
      "address": "Arulmigu Sundoor Vengadarengaiya Chetti Kattalai, Mintstreet, Chennai",
      "pincode": "600079",
      "income_category": "46_iii"
    },
    {
      "temple_id": "TM000451",
      "temple_name": "Arulmigu Vasantha Mandapa Kattalai",
      "district": "Chennai District",
      "address": "Arulmigu Vasantha Mandapa Kattalai, Broad Way, Chennai",
      "pincode": "600001",
      "income_category": "46_iii"
    },
    {
      "temple_id": "TM000479",
      "temple_name": "Arulmigu Vanabojana Dharmam Kattalai",
      "district": "Chennai District",
      "address": "Arulmigu Vanabojana Dharmam Kattalai, Mylapore, Chennai",
      "pincode": "600004",
      "income_category": "46_iii"
    },
    {
      "temple_id": "TM001310",
      "temple_name": "Arulmigu Sri Narayana Reddy Chathram",
      "district": "Vellore District",
      "address": "Arulmigu Sri Narayana Reddy Chathram, Vellore",
      "pincode": "632004",
      "income_category": "46_iii"
    },
    {
      "temple_id": "TM001717",
      "temple_name": "Arulmigu Alavandhar Nayakar Charity",
      "district": "Chengalpattu District",
      "address": "Arulmigu Alavandhar Nayakar Charity, Mamallapuram",
      "pincode": "603104",
      "income_category": "46_iii"
    },
    {
      "temple_id": "TM009758",
      "temple_name": "Arulmigu Vanabadrakaliamman Temple",
      "district": "Coimbatore District",
      "address": "Arulmigu Vanabadrakaliamman Temple, Thekkampatti",
      "pincode": "641305",
      "income_category": "46_iii"
    },
    {
      "temple_id": "TM009836",
      "temple_name": "Arulmigu Venkadasaperumal Paditharakattalai",
      "district": "Coimbatore District",
      "address": "Arulmigu Venkadasaperumal Paditharakattalai, Papanaikanpalayamcoimbatore, Coimbatore",
      "pincode": "641037",
      "income_category": "46_iii"
    },
    {
      "temple_id": "TM014255",
      "temple_name": "Arulmigu Abishaga Kattalai",
      "district": "Thiruvarur District",
      "address": "Arulmigu Abishaga Kattalai, Thiruvarur",
      "pincode": "610003",
      "income_category": "46_iii"
    },
    {
      "temple_id": "TM018035",
      "temple_name": "Pichakattalai (E) Arulmigu Amirthakadeswarar Temple",
      "district": "Mayiladuthurai District",
      "address": "Pichakattalai (E) Arulmigu Amirthakadeswarar Temple, Thirukadaiyur",
      "pincode": "609311",
      "income_category": "46_iii"
    },
    {
      "temple_id": "TM018036",
      "temple_name": "Arulmigu Kumarakkattalai Subramaniyaswamy Temple",
      "district": "Mayiladuthurai District",
      "address": "Arulmigu Kumarakkattalai Subramaniyaswamy Temple, Mayiladuthurai",
      "pincode": "609001",
      "income_category": "46_iii"
    },
    {
      "temple_id": "TM025886",
      "temple_name": "Mownamadam Kattalai inaippu Arulmigu Thayumana Swami Temple",
      "district": "Thiruchirappalli District",
      "address": "Mownamadam Kattalai inaippu Arulmigu Thayumana Swami Temple, Rock Fort, Thiruchirappalli",
      "pincode": "620002",
      "income_category": "46_iii"
    }
  ]
}